{"type": "FeatureCollection", "features": [{"type": "Feature", "properties": {"name": "Sachsen"}, "geometry": {"type": "MultiPolygon", "coordinates": [[[[14.026920588966423, 50.948255038511604], [14.028385763995765, 50.95881439695458], [14.005141839605322, 50.974206034394676], [13.865497266595247, 50.98182813304493], [13.85435719396968, 50.997043262862924], [13.818900387901037, 51.01702481380105], [13.767808234851566, 51.06683551147529], [13.844985006326924, 51.09426640040582], [13.892346577453674, 51.085369506332064], [13.923635036046637, 51.05650862266355], [13.951735154315662, 51.041321003197076], [14.015104205567917, 51.03173771744566], [14.060728531685632, 51.00162169910346], [14.056941301218627, 50.96412040628906], [14.026920588966423, 50.948255038511604]]], [[[13.641418959932736, 51.093893612253204], [13.589730515677928, 51.1191850346997], [13.525126423572226, 51.136522105819914], [13.498518251066503, 51.16668586016898], [13.45889204277319, 51.168656550058515], [13.400139785607857, 51.19471453327536], [13.347417936959328, 51.2067153586787], [13.323490464414874, 51.23665880529988], [13.303190464035888, 51.29075860024641], [13.303468067249948, 51.316475029482014], [13.335629958993245, 51.33258115282235], [13.38852419751248, 51.33562827620586], [13.404957203212296, 51.2865252721761], [13.405402871802792, 51.266892181173084], [13.423178080639097, 51.25151633336593], [13.498886475842252, 51.25318090040579], [13.532716741245597, 51.24785804933645], [13.546142065997186, 51.23742922131371], [13.552786131060417, 51.194100787635676], [13.59230927464314, 51.168938391100276], [13.610766798107834, 51.12741103060269], [13.655340703894039, 51.10268766757372], [13.641418959932736, 51.093893612253204]]]]}}, {"type": "Feature", "properties": {"name": "Saale-Unstrut"}, "geometry": {"type": "MultiPolygon", "coordinates": [[[[11.290749100078704, 51.39699784714655], [11.340111820584793, 51.41582151077829], [11.37246784708403, 51.393349208160515], [11.405665518823092, 51.385960300660976], [11.494638330014006, 51.40540004116427], [11.540022966324003, 51.40003479311311], [11.558291092374448, 51.37038285136329], [11.693288418691505, 51.3529197834492], [11.70064667596292, 51.33997273635389], [11.700777459759955, 51.30430514213173], [11.71255731168261, 51.298217272580246], [11.784420507399524, 51.30864210629641], [11.825757775138259, 51.30125727615506], [11.830301293533017, 51.27456547634493], [11.821993350346341, 51.230757114425806], [11.8355627696319, 51.22217833232954], [11.863085425409425, 51.223039265391634], [11.963210481904742, 51.254140372269134], [12.017495219433982, 51.25520604149927], [12.050650611940387, 51.23638850902274], [12.052976352161183, 51.2126137866942], [12.031744756759114, 51.18322100789332], [11.942831052321802, 51.16957426778578], [11.822132415752108, 51.12375496391325], [11.740085498793727, 51.11820260930865], [11.69966103884865, 51.0900286971033], [11.640577486610244, 51.09454574249351], [11.618244161905277, 51.117011082372365], [11.617513301115387, 51.13784362579942], [11.632086128654786, 51.149298000267486], [11.680877839721338, 51.15826118876904], [11.719664249559328, 51.1746651283422], [11.730828155347869, 51.19450063254381], [11.721457174418664, 51.20852007655621], [11.698173267164576, 51.219891453584324], [11.63975699219758, 51.23195442512282], [11.61193565155919, 51.2535940017198], [11.562026911270282, 51.249254126951726], [11.480458374622385, 51.25561811667894], [11.417287213935706, 51.27335576591896], [11.394993753558447, 51.288888842329555], [11.379760947160856, 51.31120913607449], [11.289724496850194, 51.353108577074934], [11.282536131508888, 51.36377549199545], [11.284084407949923, 51.37353500492114], [11.290749100078704, 51.39699784714655]]], [[[11.708323779309964, 51.482872305479795], [11.723041841995355, 51.470758494270605], [11.708970349396242, 51.450102505424276], [11.632662225032616, 51.46613647542275], [11.619911942364569, 51.47395591555342], [11.627916521289562, 51.50566392515181], [11.588680010254619, 51.51926715074217], [11.584028904015836, 51.53553811748502], [11.603674020590212, 51.550232206830664], [11.677107951390301, 51.53812153425471], [11.724795103042295, 51.52113758241739], [11.78670074478798, 51.5203308237203], [11.79041887970892, 51.50502580420187], [11.775104387225232, 51.49040974361845], [11.708323779309964, 51.482872305479795]]]]}}, {"type": "Feature", "properties": {"name": "Ahr"}, "geometry": {"type": "Polygon", "coordinates": [[[6.897928792621246, 50.525167633767445], [6.933750604095401, 50.5422812218522], [6.9757878781677505, 50.55220385746177], [7.04806096195463, 50.558535632106405], [7.09846512329821, 50.574586956745115], [7.143481875987446, 50.57380599475364], [7.157087983195501, 50.58132910734434], [7.2271945508559385, 50.55621270979176], [7.231920041549242, 50.52378725191019], [7.2268742217537225, 50.51116277578165], [7.1891997302437645, 50.49708594085045], [7.097963143799914, 50.48211848991671], [7.060923578035146, 50.45251564066646], [7.018353431708002, 50.43105792054831], [6.996010324904558, 50.42427151140737], [6.9398904167478, 50.42320273848475], [6.89451698716275, 50.43375918560185], [6.883149921787347, 50.440467517003846], [6.8745533451200265, 50.45964524840854], [6.876378325983084, 50.487933420059996], [6.897928792621246, 50.525167633767445]]]}}, {"type": "Feature", "properties": {"name": "Mittelrhein"}, "geometry": {"type": "MultiPolygon", "coordinates": [[[[7.533244096544793, 50.30782598369351], [7.601019588051701, 50.32718687464426], [7.597712007574661, 50.35123360449292], [7.60933307152191, 50.38570234758844], [7.58678295752894, 50.402641691951466], [7.616247073190439, 50.40542451042036], [7.6510023907859015, 50.39491331170676], [7.695733746296244, 50.395090692099544], [7.719899082528715, 50.34198641548737], [7.714998356134208, 50.33074727688923], [7.730710690569572, 50.29916627664309], [7.759611027295955, 50.203637093062014], [7.778654700786159, 50.18342688297093], [7.867935199316718, 50.129930871350886], [7.881290914777612, 50.110013446907764], [7.855031520687491, 50.07436327162581], [7.791910259930694, 50.060441843203364], [7.8616204048125224, 50.02024322015015], [7.888481240907666, 49.979633986007514], [7.9026578709212885, 49.97350123325336], [7.881088559387425, 49.94355615266191], [7.770125356923087, 49.963631535308686], [7.771486499027307, 49.98640787454374], [7.75263105070131, 50.00724153891301], [7.657987093451746, 50.049783289799734], [7.639475653433108, 50.06567636967604], [7.64208651803851, 50.11503126446351], [7.614496814559164, 50.147036002558615], [7.55482863344702, 50.19144295122163], [7.5162624347932185, 50.206902823161734], [7.5376205336429924, 50.237934402239], [7.533244096544793, 50.30782598369351]]], [[[7.212167493152602, 50.691245580247404], [7.310602329205106, 50.6413613238155], [7.339254458094705, 50.59156529112256], [7.402053251911658, 50.54661844311259], [7.424503347801949, 50.521882980593254], [7.501171809663956, 50.49024887720281], [7.512219428122529, 50.46819609625431], [7.512332051822338, 50.4369112214688], [7.493231504332425, 50.42283058500215], [7.41924622228986, 50.410754610262664], [7.406581062990198, 50.415995041976096], [7.386291196225742, 50.44076136031771], [7.320473002835118, 50.46202446276137], [7.285503825603964, 50.51739789836131], [7.2354121910255795, 50.55936864182201], [7.217437077063437, 50.63038446617524], [7.182581047802771, 50.66861724596482], [7.1624275462672085, 50.67929600622923], [7.158536014748878, 50.69261051309061], [7.185142553305234, 50.698944255563724], [7.212167493152602, 50.691245580247404]]]]}}, {"type": "Feature", "properties": {"name": "Mosel"}, "geometry": {"type": "Polygon", "coordinates": [[[6.432387842975883, 49.522626677714904], [6.365761103186656, 49.5281395621617], [6.359181281540029, 49.588375332854525], [6.46691654385969, 49.70032635781035], [6.476946742741118, 49.73084164584362], [6.452786030990881, 49.755605463838776], [6.455253094669238, 49.76649690699452], [6.494248103461292, 49.787980417269], [6.598920676751281, 49.818080567078084], [6.662766139004415, 49.861711804154545], [6.672950431407974, 49.916100339649645], [6.668380241117168, 49.96210152969622], [6.679239118919423, 49.98388490924612], [6.697602237872121, 49.998942023560936], [6.741083939072708, 50.02222005832327], [6.905496631496454, 50.0423718444204], [6.966494973117485, 50.06293413254383], [7.03436338028294, 50.12072902817931], [7.072441104654164, 50.1866006042427], [7.211563576290619, 50.213970329395835], [7.292833713201071, 50.25810942495663], [7.414638676859501, 50.35210127842395], [7.470072754253194, 50.357674443034085], [7.533202160980883, 50.329596000755885], [7.537611804382532, 50.23792867618745], [7.520463263127231, 50.20988372502007], [7.477695428481263, 50.17603854939625], [7.267682623148024, 50.09421115225486], [7.176189854862383, 49.920884664861575], [7.141689912647615, 49.893648305871075], [7.070863766811241, 49.86396490696145], [7.0393434464007, 49.83402591424225], [7.034488564136162, 49.81609237499937], [7.036909878660909, 49.78051886119279], [7.025795206177685, 49.76816483856229], [6.978579101890453, 49.75016558635077], [6.869730095562493, 49.75573764667041], [6.833680471871221, 49.73668803555207], [6.75167122919055, 49.6747574047014], [6.6441979337707044, 49.63100573049809], [6.612141301172057, 49.6072670393258], [6.585249409807758, 49.56084651275303], [6.589463241823616, 49.51104207285456], [6.553673418596118, 49.49113961313736], [6.490383620696567, 49.487486320989206], [6.450742531489473, 49.50483478507411], [6.432387842975883, 49.522626677714904]]]}}, {"type": "Feature", "properties": {"name": "Rheingau"}, "geometry": {"type": "Polygon", "coordinates": [[[7.881301033589862, 50.110041383721196], [7.942336293243762, 50.07594163639535], [8.104263923921652, 50.11728310407891], [8.193740243777953, 50.119817608726116], [8.263247097576771, 50.09528279472247], [8.295442602247437, 50.06554027743289], [8.419412588331312, 50.082259452659066], [8.451844937664122, 50.064691211707284], [8.466484465493233, 50.04683562233694], [8.418599315238975, 50.01191287213954], [8.389615908477683, 50.00584127173995], [8.250237636407801, 50.02763287969832], [8.183534973441336, 50.02864092453175], [8.127521766880013, 50.0125779153871], [8.072767136938943, 50.01655222671973], [8.043723125030903, 50.01070948828816], [8.009564391212104, 49.97677763558985], [7.971094338636488, 49.9650448349581], [7.937437740604039, 49.96610338659286], [7.90217262183995, 49.97221651188229], [7.884868951301007, 49.98466278865231], [7.863202422016348, 50.01581095120852], [7.7919194188839755, 50.060469767298315], [7.855040850789391, 50.0743900837018], [7.881301033589862, 50.110041383721196]]]}}, {"type": "Feature", "properties": {"name": "Rheinhessen"}, "geometry": {"type": "Polygon", "coordinates": [[[8.396421190477517, 49.61966118488958], [8.305847188158486, 49.54408250336556], [8.262948197850463, 49.53050124224348], [8.201682020027473, 49.51887767206839], [8.098731898765429, 49.53203191182186], [8.06991975583037, 49.60627575110872], [7.962352697691086, 49.63163767423329], [7.950167743836616, 49.64193277149429], [7.955226617377077, 49.66171930555022], [7.918641890656377, 49.715809662249605], [7.896042779417965, 49.76676499746927], [7.894014820466868, 49.7964125545834], [7.897892666934129, 49.87638437584716], [7.949148426127747, 49.89603437696015], [7.949053919652746, 49.901431824221895], [7.8823175088145385, 49.92352286717109], [7.88154434045579, 49.94623253043931], [7.903101031360945, 49.9724597783222], [7.94654798031966, 49.96550850130534], [7.990145970911758, 49.96956740335028], [8.010605194443905, 49.977982692602694], [8.045994784749517, 50.01069697359456], [8.069692761104738, 50.01757608747935], [8.117320559653294, 50.01197024197873], [8.191992398497803, 50.028322631893325], [8.232068835788686, 50.027515047276324], [8.266120077974145, 50.02459099065341], [8.29810099513978, 50.01262791790816], [8.358427123912918, 49.94228629253308], [8.35117856315264, 49.87831505369406], [8.377489816891817, 49.8543469884947], [8.373819055005873, 49.83069020145644], [8.41560434582505, 49.80577973506227], [8.420152691554607, 49.768510022809245], [8.480410510359157, 49.7527894149167], [8.475933582811807, 49.74127416481621], [8.432318531406478, 49.70773216680688], [8.37331470993541, 49.705682710378724], [8.3465639158181, 49.67928158852152], [8.347516691442424, 49.65884136541375], [8.396421190477517, 49.61966118488958]]]}}, {"type": "Feature", "properties": {"name": "Nahe"}, "geometry": {"type": "Polygon", "coordinates": [[[7.88078642947459, 49.94292615005272], [7.882302100987117, 49.92350374195971], [7.949037624291287, 49.90141325063236], [7.9491321344041515, 49.89601580377239], [7.897877286374601, 49.87636525621921], [7.893999494423639, 49.796393440315875], [7.896027472654753, 49.7667458856558], [7.918626611832704, 49.71579055724928], [7.95521135295441, 49.66170076383836], [7.8798714243828565, 49.622915700587505], [7.844568206862373, 49.594179379562604], [7.804746248820057, 49.60032623976214], [7.729651228845193, 49.64387225093475], [7.635345280685831, 49.68159699636372], [7.581064740945481, 49.689870961809845], [7.506937698874886, 49.684857936339846], [7.485178130288308, 49.689146306970436], [7.450477327743332, 49.70958168556174], [7.416358563671729, 49.75498014953242], [7.403023297863969, 49.794286553856864], [7.406186731605852, 49.82817430011432], [7.429321616394571, 49.84138661679239], [7.4579138013890685, 49.873909893391], [7.478025428888492, 49.88511201582305], [7.514459880505715, 49.892302973427086], [7.632898779525096, 49.89102266869207], [7.664469864338389, 49.90518960236914], [7.693675282675264, 49.934068807552926], [7.770369980450492, 49.96347036374892], [7.88078642947459, 49.94292615005272]]]}}, {"type": "Feature", "properties": {"name": "Franken"}, "geometry": {"type": "Polygon", "coordinates": [[[9.02795267010152, 49.999909986195014], [9.055870921207216, 50.00899284664185], [9.097606476929139, 50.00796581348467], [9.166250574295043, 50.00088456943418], [9.192633721243917, 49.99167710769959], [9.206428379708532, 49.95347753947356], [9.203094108901793, 49.911782612525656], [9.219019427857626, 49.86413898991821], [9.219626362004309, 49.83980963995705], [9.264519462449302, 49.776557804418516], [9.303838679449244, 49.76367391030982], [9.333399903945674, 49.76219316490147], [9.378501091934215, 49.78173743887427], [9.474510711484351, 49.77753645626613], [9.505273922697828, 49.7616984535791], [9.562697348941633, 49.75384110247975], [9.572077705100893, 49.756079641294335], [9.583261644478169, 49.77676352378013], [9.611065375817123, 49.790785637984115], [9.621712959882384, 49.80733425545429], [9.592435024653927, 49.82066551699864], [9.582356891999453, 49.83464933836822], [9.600925142667155, 49.852484585289936], [9.612225577164827, 49.899899549979374], [9.587181623157264, 49.92978227631955], [9.608454910714253, 49.95558212001239], [9.580974746533741, 49.987694648169196], [9.583608100954843, 49.99533689155073], [9.667045045076899, 50.05430268290139], [9.6653127722316, 50.06448956532333], [9.673071282702134, 50.07818465791637], [9.697708401087281, 50.09347691502236], [9.731278831047684, 50.09029668917299], [9.82129988658829, 50.055230838306954], [9.944579944978123, 49.88220540808099], [9.971798457147674, 49.83696142135164], [9.989083499547364, 49.78824269022498], [10.011063315248183, 49.785638209587475], [10.029927597594213, 49.77488779533107], [10.045148045609627, 49.7783801473601], [10.058968125546162, 49.79885497736195], [10.01979123900875, 49.88164075145701], [10.095841519725276, 50.03330710550127], [10.166861156865751, 50.105337118534436], [10.267153647803504, 50.09947182161916], [10.66909990008085, 50.013885023325805], [10.762275545743332, 49.97869832608391], [10.799409448501516, 49.94245564547679], [10.779520506959878, 49.91355257199108], [10.691508226185073, 49.901254664483545], [10.659166742970061, 49.90699300301735], [10.600781597189034, 49.931974535355785], [10.54271519252591, 49.92957071114797], [10.523359187586724, 49.91725950632596], [10.507964948819883, 49.888123672512826], [10.478109072199661, 49.863190792382284], [10.455943805148896, 49.85737867054091], [10.397626753525156, 49.857010526715044], [10.340204394921976, 49.83520235064881], [10.33287361066594, 49.80998545387814], [10.346533474163525, 49.79912553203591], [10.420552556175203, 49.79484107926929], [10.433671105081643, 49.788388068279616], [10.440932429624116, 49.774019635987834], [10.385132000379649, 49.67417793322001], [10.401083007917059, 49.58906872872562], [10.39798694286235, 49.54216950059457], [10.34489180666983, 49.517674057039955], [10.310543170763228, 49.51748247980356], [10.248257681379723, 49.50292827621187], [10.213572873013009, 49.51077186127382], [10.189372738288954, 49.531427041784205], [10.146978610925345, 49.546038026506665], [10.063002935091596, 49.555257939466635], [9.978239943531, 49.53549363457704], [9.90807845734442, 49.55885592635488], [9.90510140946922, 49.57856701745643], [9.868662448763097, 49.58657793142688], [9.814764302374053, 49.578385959669646], [9.791977910912852, 49.58730715415732], [9.791917824914918, 49.6086026172565], [9.761629304723838, 49.65948568223733], [9.692672179230554, 49.70685819524489], [9.79515827110408, 49.76303806296946], [9.803213319241937, 49.7813605874473], [9.725342327825667, 49.90253526450087], [9.716307983146137, 49.933587249798286], [9.69155363011952, 49.948885833675746], [9.667172083537437, 49.950676930626955], [9.651488412924033, 49.93581695015463], [9.66177673357474, 49.883735606301855], [9.662835608442855, 49.851510131164815], [9.656937218177557, 49.83143120550529], [9.69086293944977, 49.75587548848402], [9.688535039778923, 49.73923523661413], [9.673407815468185, 49.715397884415566], [9.58813054444689, 49.72258906908616], [9.524082514097444, 49.715249445646336], [9.461958741527917, 49.69759213856285], [9.409769253443036, 49.714884043941815], [9.320657477453313, 49.697631086725295], [9.25700468112099, 49.65513039969634], [9.196510605360245, 49.664303846787014], [9.09433474150138, 49.72783709008286], [9.083427381819853, 49.7581251537185], [9.063969794246335, 49.776897371489085], [9.070220281949316, 49.8246044415971], [9.08399076323268, 49.86460356971569], [9.077329429261365, 49.8862700930581], [9.00986941551612, 49.96357873426075], [9.009286643268494, 49.978987836361945], [9.02795267010152, 49.999909986195014]]]}}, {"type": "Feature", "properties": {"name": "W\u00fcrttemberg"}, "geometry": {"type": "MultiPolygon", "coordinates": [[[[9.732701356468306, 47.53867599127287], [9.688795665063257, 47.57813264395784], [9.638876348155206, 47.58004273164709], [9.572669871213481, 47.61373415747563], [9.528598401642407, 47.61247560028028], [9.488782474689792, 47.64113099340665], [9.522113395090372, 47.66385602984629], [9.569229429870623, 47.67194207241864], [9.615553699978406, 47.67038254168793], [9.681631339809126, 47.657593073669474], [9.727291261456383, 47.62963994371798], [9.739653543830048, 47.61196169884686], [9.742914711204273, 47.577736543763734], [9.732701356468306, 47.53867599127287]]], [[[9.978187374402037, 49.53546300269956], [9.93676809346218, 49.50880765227117], [9.870057344961367, 49.44648376796163], [9.791243094166983, 49.34597528885781], [9.700546002162572, 49.24545860404286], [9.64000768084729, 49.232883402420946], [9.590096944112604, 49.180343019636865], [9.554774542473378, 49.12315445753119], [9.527627984556517, 49.11061323489033], [9.464784081857598, 49.10074927312676], [9.440686954231795, 49.07243737173364], [9.407047023261049, 49.04723988723462], [9.41746391025426, 48.990145641100135], [9.410414462050941, 48.95481874920179], [9.457002104319, 48.926231329677535], [9.486000826513274, 48.86851824019197], [9.513242782590671, 48.85959714783794], [9.603263143528654, 48.85235087869229], [9.620733740171556, 48.83997898363955], [9.62407309611996, 48.824294579535625], [9.57983751435057, 48.7725121417244], [9.565165447459378, 48.70714781893285], [9.47202326688429, 48.605526767895924], [9.444523064839778, 48.54503383228301], [9.421290681126713, 48.51157988240409], [9.393438509024342, 48.492995064537205], [9.221390979509396, 48.448557841916234], [9.097276885326297, 48.46272743995847], [9.030847706968162, 48.46189907269203], [8.947679907913384, 48.48328872445266], [8.893112309480019, 48.459630269528105], [8.869840633193853, 48.46840482994924], [8.848116083409709, 48.46734231244646], [8.841492940150081, 48.508799352089255], [8.846032901511839, 48.52864151824828], [8.866739309804446, 48.55834536221237], [8.894284678692607, 48.57914401050872], [8.973997588566059, 48.61954930166475], [9.016847394573752, 48.673559687422845], [9.019325617831832, 48.692833075036724], [8.990116297647795, 48.73564791715615], [8.991911482024536, 48.75581778915509], [9.007963512978867, 48.777759920581715], [9.055383247186025, 48.80952199323659], [9.063554622267185, 48.83062955196768], [9.04914846706424, 48.85289603950569], [9.031086101478397, 48.86270325643598], [8.868951304711034, 48.89431027665904], [8.808661540043115, 48.934174507227155], [8.77424916884402, 48.98544391749979], [8.771300347981057, 48.999767797458325], [8.769366630384283, 49.041902180582724], [8.794453513933375, 49.069470585501925], [8.816439395977067, 49.08445240463591], [8.86316013828718, 49.101921672963115], [8.875973245029646, 49.11463465003727], [8.897856077373172, 49.15820032390203], [8.909526482893328, 49.16681003449524], [8.94671158277866, 49.18053405897887], [9.033658997326068, 49.180874175090494], [9.051223032765417, 49.18675680512127], [9.060513254265738, 49.19247602636422], [9.078175823795927, 49.22612102110366], [9.332947813974089, 49.41863088550516], [9.487339074058433, 49.51067624623387], [9.58554776648013, 49.559351531940266], [9.666908214235576, 49.58457435122002], [9.710164551938423, 49.60480432206393], [9.724262378409849, 49.61873713233301], [9.727303452786206, 49.63312145301132], [9.771641673577866, 49.64255286220655], [9.79186433359871, 49.60857271839292], [9.791924445148748, 49.587276703827634], [9.81470998416581, 49.578354968131435], [9.868607253558853, 49.58654696664141], [9.905047924456339, 49.578536068815254], [9.908025005889561, 49.55882498202513], [9.978187374402037, 49.53546300269956]]]]}}, {"type": "Feature", "properties": {"name": "Baden"}, "geometry": {"type": "MultiPolygon", "coordinates": [[[[9.03591763881643, 47.820431032587585], [9.040284066401409, 47.81899532661358], [9.037249691203767, 47.81953485005355], [9.03591763881643, 47.820431032587585]]], [[[9.029051790099487, 47.82322456251669], [9.023416883876575, 47.82682389780521], [9.030366267815, 47.82275893893901], [9.029051790099487, 47.82322456251669]]], [[[9.023345724842327, 47.82690510690768], [9.022839137884372, 47.82748324111945], [9.023190878570011, 47.8308141343254], [9.023345724842327, 47.82690510690768]]], [[[9.023304375995862, 47.83188823867207], [9.023570625893159, 47.83440772062329], [9.024967429710756, 47.83519917407081], [9.023304375995862, 47.83188823867207]]], [[[9.02921966747546, 47.83746930705746], [9.038730432211523, 47.83907428949012], [9.040849800297432, 47.83893479231636], [9.02921966747546, 47.83746930705746]]], [[[7.941413234503712, 48.63870868385497], [8.042675757108885, 48.71557316870215], [8.165090642216798, 48.85236030172616], [8.192095529273692, 48.86414995456454], [8.224556533135214, 48.86764850914578], [8.285975207271042, 48.85907918421464], [8.390362875504282, 48.819197493802186], [8.409529340761765, 48.79281250833922], [8.407017875376104, 48.7584084435054], [8.386843617531797, 48.73108077636091], [8.315991652925524, 48.718239492773556], [8.294776040079338, 48.72041926193994], [8.234048496829287, 48.74550698693029], [8.214268801221177, 48.74341255342031], [8.203793947797594, 48.73456217131519], [8.187948959669848, 48.713269593343945], [8.18226590553235, 48.67834849496064], [8.165058526570812, 48.64010080101438], [8.178112773146342, 48.599120530436785], [8.174447344193403, 48.5892033264999], [8.14225661009999, 48.545862361226135], [8.052402973127833, 48.48076572969409], [8.030379667878021, 48.45233544124666], [8.027054307572037, 48.41201346512887], [8.051199416876896, 48.366191074419575], [8.043030217117025, 48.34162492252017], [7.9965390866261705, 48.30965401241071], [7.918767483820689, 48.27611847279623], [7.884652455693947, 48.24075009572998], [7.885128716032371, 48.19782693268424], [7.8909541141633195, 48.18962540978337], [7.954296143811718, 48.15052878867323], [7.976985339318364, 48.121340326237295], [7.960011539135923, 48.04128687768158], [7.9479967067451485, 48.01521810227099], [7.849155991392101, 47.95057138369794], [7.705668996517605, 47.77421253989986], [7.6810672607746096, 47.72195366480776], [7.6802434887849, 47.70425699811007], [7.693529114357303, 47.67886096884964], [7.707918141657844, 47.658695910298675], [7.729531083463337, 47.64900600716189], [7.744103869323775, 47.613928994732895], [7.8075900605394635, 47.58922406332111], [7.7810400652286535, 47.56772442666297], [7.726021961722627, 47.56401640781766], [7.679308654508475, 47.54615993900766], [7.663794617717713, 47.54630282868062], [7.623587824854347, 47.5629120513603], [7.658576784435211, 47.5957406022307], [7.656751314788936, 47.62427251597978], [7.638695225511306, 47.63195191599639], [7.5889433542510405, 47.62783095792109], [7.587861360132711, 47.634059171620095], [7.497983538359691, 47.6933705218076], [7.497482860760205, 47.721494935620406], [7.510890014872358, 47.73428122781486], [7.525536569597837, 47.79131175447809], [7.514222314846205, 47.851834403833884], [7.5434556470442615, 47.91812355801427], [7.560601712175915, 47.938583558749194], [7.585972775128867, 48.00479799299986], [7.581996059388838, 48.026174908581446], [7.554448667934988, 48.06540967687962], [7.5738883752518795, 48.168206706240184], [7.642665469714624, 48.2254716227933], [7.643675001040749, 48.24517396962195], [7.700351885025308, 48.23876056188522], [7.728901674508234, 48.25623614334546], [7.744334971337686, 48.328048828257586], [7.807691658711335, 48.40974156797279], [7.869837972658501, 48.55944977349147], [7.941413234503712, 48.63870868385497]]], [[[9.100904624828777, 47.671619357440875], [9.155335172479903, 47.66089697753293], [9.190865550129397, 47.67198323196992], [9.197710582872043, 47.66397495154659], [9.189082786514842, 47.64926703675695], [9.155284038948047, 47.62623916783349], [9.130624711032446, 47.626589938030946], [9.098279089521103, 47.657333651075014], [9.100904624828777, 47.671619357440875]]], [[[8.972903166065633, 47.747404187738816], [9.05617389346935, 47.81569831937908], [9.071097948325137, 47.804736773022576], [9.071767507447356, 47.7798053947167], [9.118577338054914, 47.77469472206699], [9.180643175575973, 47.741545303858096], [9.192609240293912, 47.71446234404223], [9.19112813990363, 47.698678697352555], [9.138222122723114, 47.69022493177086], [9.089349265591819, 47.70542865149257], [9.065354255694372, 47.704979978148835], [9.056727664854336, 47.71029392471794], [9.073987463842652, 47.7160735260707], [9.08950187059048, 47.734146398628354], [9.049666231545299, 47.737189886256914], [8.99829109009323, 47.75916253061447], [8.972903166065633, 47.747404187738816]]], [[[9.063622829531559, 47.83743421435592], [9.077738260338917, 47.83210137554195], [9.115480065988544, 47.84346295474431], [9.183815731015748, 47.84758252629233], [9.257425828067614, 47.81825566235465], [9.41570638605469, 47.7912321287875], [9.466334559699177, 47.770500355133564], [9.489146446660614, 47.72698626594359], [9.48526683003481, 47.682175436336365], [9.477011654680199, 47.66957429088644], [9.472197121641086, 47.67650771700004], [9.436122346480428, 47.67675604542525], [9.382770262006149, 47.695565375041205], [9.329546384776517, 47.68374276978919], [9.294758968063517, 47.706977236673836], [9.21224450580635, 47.73821394148632], [9.224811666237368, 47.75365128044157], [9.21470128175768, 47.76335236500478], [9.174720258332993, 47.771499507026626], [9.124280258399931, 47.809759329825894], [9.096288872344802, 47.81592398066996], [9.063622829531559, 47.83743421435592]]], [[[9.049815241393109, 47.81735792881299], [9.04999888318716, 47.81726745541866], [9.046695851034976, 47.817855026832504], [9.049815241393109, 47.81735792881299]]], [[[9.727256743535813, 49.63313532839871], [9.724215679554671, 49.618751005955865], [9.710117864461605, 49.604818743532654], [9.666861500576749, 49.584588198417286], [9.585500165402552, 49.55936589580207], [9.487291430681191, 49.51069000988948], [9.332900987019036, 49.418645133350985], [9.078128958903264, 49.2261350792015], [9.060466404006695, 49.19249014443476], [9.05117618182564, 49.18677043450549], [9.03361171055639, 49.18088813977676], [8.946664661568544, 49.18054646554522], [8.900293658935622, 49.16047523590783], [8.875926324702206, 49.11464736861971], [8.863112794466671, 49.10193431293343], [8.808503926567676, 49.080531981551765], [8.769318837937105, 49.04191504910128], [8.772743707748862, 48.99144168031671], [8.786128594390343, 48.96760164927988], [8.776951713074018, 48.96136089600815], [8.614370948917095, 48.904703479238535], [8.57297317987604, 48.88114515708838], [8.523078816539256, 48.86952215261089], [8.475268204122504, 48.87354786651428], [8.433337483431702, 48.887995568623616], [8.393100690532847, 48.9060645760448], [8.373347706488811, 48.925833713114294], [8.361483089291161, 48.96242115418673], [8.380935889451637, 48.98770560865297], [8.44083441969118, 49.044541784218346], [8.508435138615617, 49.09129065917333], [8.541952250052146, 49.134473688656634], [8.597986046084735, 49.17677329231071], [8.615996548373282, 49.19797408624859], [8.622757348993979, 49.23714928095859], [8.603745847037683, 49.30392522504155], [8.599900285432438, 49.379757039091224], [8.621221619194547, 49.46189701607093], [8.61923700323388, 49.51777919670156], [8.772615826500559, 49.52269055476299], [8.82055305711865, 49.489737300718986], [8.89348173841267, 49.47835242910767], [8.9438106702175, 49.48387678461699], [9.04581118682426, 49.51959985788423], [9.065489948430145, 49.52956528134036], [9.080279083060224, 49.54712403027731], [9.13955501607714, 49.55816967307875], [9.17427147132137, 49.5720860923952], [9.260136024259182, 49.622042272832914], [9.319699008740914, 49.6252094254353], [9.405766481356055, 49.680707484397395], [9.482879338887376, 49.70614941051951], [9.563717553307683, 49.720224725285135], [9.637378517694271, 49.72209587103541], [9.692615947970678, 49.706827124824756], [9.743286522411653, 49.67567750818036], [9.771621315157791, 49.64255953062135], [9.727256743535813, 49.63313532839871]]]]}}, {"type": "Feature", "properties": {"name": "Hessische Bergstra\u00dfe"}, "geometry": {"type": "Polygon", "coordinates": [[[8.772566536299518, 49.5227461072464], [8.619186575686578, 49.517835222140384], [8.593948182380089, 49.58868947344043], [8.595732544130392, 49.61349203486448], [8.586651917604424, 49.63659770901655], [8.537560800791383, 49.69027331010181], [8.55172206920607, 49.713707429826144], [8.542322241512801, 49.73657570103378], [8.54762995308461, 49.75054098738694], [8.585869100092207, 49.76151022722967], [8.604663485224624, 49.77696286325877], [8.628978527114393, 49.78133834739728], [8.668226155132539, 49.77376997007042], [8.70403686156361, 49.74231052309843], [8.732491123736304, 49.671682524695576], [8.751026495968569, 49.60637997684761], [8.75513532465547, 49.56924062665367], [8.772566536299518, 49.5227461072464]]]}}, {"type": "Feature", "properties": {"name": "Pfalz"}, "geometry": {"type": "Polygon", "coordinates": [[[7.911625038000423, 49.041191516638484], [7.8804998133345485, 49.07394983156709], [7.881952094847521, 49.09611659042808], [7.910843575090325, 49.191671477119854], [7.998746013446166, 49.28536692543916], [8.066062350711622, 49.32510535643413], [8.069847673119648, 49.35125501807515], [8.047878047727725, 49.38269385334308], [8.041035444077997, 49.40535541080746], [8.099273153180825, 49.532563539758385], [8.20168526767503, 49.51954027735182], [8.305553198372115, 49.544329270531804], [8.295002125130306, 49.497936147029534], [8.256474989949615, 49.42564936447933], [8.26624903147527, 49.39854487947055], [8.268092767314382, 49.2817225541968], [8.28259931624705, 49.2477468830232], [8.28530108050411, 49.21588859138907], [8.280341223068897, 49.18551415877867], [8.249320087893311, 49.13576758400466], [8.22130137998909, 49.110203685144654], [8.165613301080844, 49.078934378019845], [8.143171262354684, 49.049006315121396], [8.126726830777898, 49.04111965688362], [7.989291675979793, 49.02997552295945], [7.961024886878594, 49.04907652962322], [7.911625038000423, 49.041191516638484]]]}}], "source_note": "Germany's 13 Anbaugebiete, traced from the 'Vignobles' layer of Wikimedia Commons File:WeinbaugebieteDeutschland.svg (CC BY-SA 3.0; German translation of File:Vignobles allemagne-fr.svg by DalGobboM). Region identity taken from the SVG's own color-keyed legend (all 20 shapes matched a legend swatch). Georeferenced from SVG space to lon/lat by a 2nd-order polynomial fit against the SVG's own 33 city markers vs their real coordinates: RMS 3.0 km, max 5.8 km. Illustrative regional extent at national scale, not legal parcel boundaries."}