{"type": "FeatureCollection", "features": [{"type": "Feature", "properties": {"name": "California"}, "geometry": {"type": "MultiPolygon", "coordinates": [[[[-121.862266, 36.931552], [-121.930069, 36.97815], [-121.972771, 36.954151], [-122.105976, 36.955951], [-122.20618, 37.013949], [-122.284882, 37.101747], [-122.337071, 37.117382], [-122.367085, 37.172817], [-122.405073, 37.195791], [-122.419113, 37.24147], [-122.40085, 37.359225], [-122.452087, 37.48054], [-122.472388, 37.50054], [-122.499289, 37.495341], [-122.516689, 37.52134], [-122.517187, 37.590637], [-122.501386, 37.599637], [-122.494085, 37.644035], [-122.514483, 37.780829], [-122.485783, 37.790629], [-122.478083, 37.810828], [-122.398139, 37.80563], [-122.375854, 37.734979], [-122.356784, 37.729505], [-122.39319, 37.707531], [-122.374291, 37.662206], [-122.386072, 37.637662], [-122.35531, 37.615736], [-122.378545, 37.605592], [-122.262698, 37.572866], [-122.196593, 37.537196], [-122.168449, 37.504143], [-122.111344, 37.50758], [-122.163049, 37.667933], [-122.246826, 37.72193], [-122.257953, 37.739601], [-122.242638, 37.753744], [-122.33079, 37.78383], [-122.333711, 37.809797], [-122.303931, 37.830087], [-122.309986, 37.892755], [-122.33453, 37.908791], [-122.385908, 37.908136], [-122.430087, 37.963115], [-122.399832, 37.956009], [-122.367582, 37.978168], [-122.367909, 38.01253], [-122.340093, 38.003694], [-122.283478, 38.022674], [-122.262861, 38.0446], [-122.273006, 38.07438], [-122.314567, 38.115287], [-122.39638, 38.149976], [-122.439577, 38.116923], [-122.489974, 38.112014], [-122.497828, 38.019402], [-122.448413, 37.984713], [-122.488665, 37.966714], [-122.479175, 37.941516], [-122.503064, 37.928753], [-122.438268, 37.880974], [-122.480811, 37.873448], [-122.479151, 37.825428], [-122.505383, 37.822128], [-122.656519, 37.904519], [-122.70264, 37.89382], [-122.727297, 37.904626], [-122.821383, 37.996735], [-122.882114, 38.025273], [-122.956811, 38.02872], [-122.981776, 38.009119], [-122.97439, 37.992429], [-123.024066, 37.994878], [-122.949074, 38.15406], [-122.993959, 38.237602], [-122.968569, 38.242879], [-122.977082, 38.267902], [-123.024333, 38.310573], [-123.063671, 38.302178], [-123.068265, 38.359865], [-123.128825, 38.450418], [-123.331899, 38.565542], [-123.441774, 38.699744], [-123.514784, 38.741966], [-123.725367, 38.917438], [-123.738886, 38.95412], [-123.711149, 38.977316], [-123.690095, 39.031157], [-123.822085, 39.343857], [-123.81469, 39.446538], [-123.766475, 39.552803], [-123.787417, 39.604552], [-123.792659, 39.684122], [-123.829545, 39.723071], [-123.851714, 39.832041], [-123.907664, 39.863028], [-123.930047, 39.909697], [-124.035904, 40.013319], [-124.079983, 40.029773], [-124.080709, 40.06611], [-124.110549, 40.103765], [-124.187874, 40.130542], [-124.363414, 40.260974], [-124.347853, 40.314634], [-124.373599, 40.392923], [-124.408601, 40.443201], [-124.329404, 40.61643], [-124.137066, 40.925732], [-124.112165, 41.028173], [-124.125448, 41.048504], [-124.153622, 41.05355], [-124.165414, 41.129822], [-124.1438, 41.144686], [-124.106986, 41.229678], [-124.063076, 41.439579], [-124.081987, 41.547761], [-124.135552, 41.657307], [-124.147412, 41.717955], [-124.164716, 41.740126], [-124.194953, 41.736778], [-124.255994, 41.783014], [-124.208439, 41.888192], [-124.211605, 41.99846], [-122.378193, 42.009518], [-119.999168, 41.99454], [-120.001014, 38.999574], [-118.746598, 38.124926], [-117.500909, 37.220282], [-116.093601, 36.155805], [-114.633013, 35.002085], [-114.633051, 34.869971], [-114.552682, 34.766871], [-114.465607, 34.69226], [-114.339627, 34.451435], [-114.176909, 34.349306], [-114.138282, 34.30323], [-114.131489, 34.260387], [-114.164476, 34.251667], [-114.244191, 34.179625], [-114.411681, 34.110031], [-114.43338, 34.088413], [-114.438266, 34.022609], [-114.499883, 33.961789], [-114.518434, 33.917518], [-114.523365, 33.80612], [-114.494197, 33.707922], [-114.530348, 33.679245], [-114.535664, 33.568788], [-114.627125, 33.433554], [-114.721233, 33.396912], [-114.672088, 33.258499], [-114.679359, 33.159519], [-114.707819, 33.091102], [-114.675104, 33.047532], [-114.62387, 33.02872], [-114.523578, 33.030961], [-114.468605, 32.971649], [-114.465715, 32.879191], [-114.496284, 32.822326], [-114.615585, 32.728446], [-114.678632, 32.736614], [-114.719633, 32.718763], [-117.124862, 32.534156], [-117.136664, 32.618754], [-117.168866, 32.671952], [-117.196767, 32.688851], [-117.246069, 32.669352], [-117.25497, 32.786948], [-117.28217, 32.839547], [-117.25617, 32.859447], [-117.25447, 32.900146], [-117.315278, 33.093504], [-117.469794, 33.296417], [-117.547693, 33.365491], [-117.59588, 33.386629], [-117.645582, 33.440728], [-117.715349, 33.460556], [-117.784888, 33.541525], [-117.927091, 33.605521], [-118.132698, 33.753217], [-118.180831, 33.763072], [-118.181367, 33.717367], [-118.258687, 33.703741], [-118.411211, 33.741985], [-118.428407, 33.774715], [-118.394307, 33.804315], [-118.392107, 33.840915], [-118.460611, 33.969111], [-118.519514, 34.027509], [-118.569235, 34.04164], [-118.744952, 34.032103], [-118.805114, 34.001239], [-118.854653, 34.034215], [-118.938081, 34.043383], [-119.088536, 34.09831], [-119.130169, 34.100102], [-119.216441, 34.146105], [-119.278644, 34.266902], [-119.390449, 34.318198], [-119.461036, 34.374064], [-119.559459, 34.413395], [-119.671866, 34.416096], [-119.709067, 34.395397], [-119.794771, 34.417597], [-119.873971, 34.408795], [-120.008077, 34.460447], [-120.141165, 34.473405], [-120.471376, 34.447846], [-120.511421, 34.522953], [-120.637805, 34.56622], [-120.640244, 34.604406], [-120.60045, 34.70464], [-120.637415, 34.755895], [-120.610266, 34.85818], [-120.647328, 34.901133], [-120.670835, 34.904115], [-120.629931, 35.061515], [-120.644311, 35.139616], [-120.714185, 35.175998], [-120.74887, 35.177795], [-120.760492, 35.15971], [-120.856047, 35.206487], [-120.89679, 35.247877], [-120.862684, 35.346776], [-120.884757, 35.430196], [-120.907937, 35.449069], [-121.003359, 35.46071], [-121.101595, 35.548814], [-121.166712, 35.635399], [-121.284973, 35.674109], [-121.314632, 35.71331], [-121.332449, 35.783106], [-121.462264, 35.885618], [-121.503112, 36.000299], [-121.574602, 36.025156], [-121.680145, 36.165818], [-121.826425, 36.24186], [-121.888491, 36.30281], [-121.903195, 36.393603], [-121.9416, 36.485602], [-121.944666, 36.521861], [-121.925937, 36.525173], [-121.932508, 36.559935], [-121.978592, 36.580488], [-121.93643, 36.636746], [-121.889064, 36.601759], [-121.860604, 36.611136], [-121.814462, 36.682858], [-121.788278, 36.803994], [-121.862266, 36.931552]]], [[[-123.00019, 37.702937], [-123.011464, 37.691907], [-123.012194, 37.706749], [-123.00019, 37.702937]]], [[[-122.358779, 37.814278], [-122.3785, 37.826505], [-122.369941, 37.832137], [-122.358779, 37.814278]]], [[[-122.430958, 37.872242], [-122.41847, 37.852721], [-122.446316, 37.861046], [-122.430958, 37.872242]]], [[[-120.248484, 33.999329], [-120.147647, 34.024831], [-120.090182, 34.019806], [-120.043259, 34.035806], [-120.046575, 34.000002], [-120.011123, 33.979894], [-119.978876, 33.983081], [-119.97026, 33.944359], [-120.121817, 33.895712], [-120.168974, 33.91909], [-120.248484, 33.999329]]], [[[-120.396188, 34.050187], [-120.368278, 34.076465], [-120.358608, 34.050235], [-120.331161, 34.049097], [-120.302122, 34.023574], [-120.35793, 34.015029], [-120.465329, 34.038448], [-120.396188, 34.050187]]], [[[-118.487908, 32.84459], [-118.605534, 33.030999], [-118.569013, 33.029151], [-118.496811, 32.933847], [-118.356541, 32.817311], [-118.394565, 32.823978], [-118.425634, 32.800595], [-118.487908, 32.84459]]], [[[-119.429559, 33.228167], [-119.476029, 33.21552], [-119.545872, 33.233406], [-119.578942, 33.278628], [-119.528141, 33.284929], [-119.429559, 33.228167]]], [[[-118.370323, 33.409285], [-118.310213, 33.335795], [-118.316787, 33.301137], [-118.465368, 33.326056], [-118.48877, 33.356649], [-118.478465, 33.38632], [-118.48875, 33.419826], [-118.563442, 33.434381], [-118.60403, 33.47654], [-118.54453, 33.474119], [-118.370323, 33.409285]]], [[[-119.441116, 34.012426], [-119.396251, 34.005918], [-119.357462, 34.015919], [-119.391551, 34.002505], [-119.441116, 34.012426]]], [[[-119.726437, 34.047908], [-119.686507, 34.019805], [-119.637742, 34.013178], [-119.59324, 34.049625], [-119.52064, 34.034262], [-119.560464, 33.99553], [-119.758141, 33.959212], [-119.873358, 33.980375], [-119.876329, 34.032087], [-119.923337, 34.069361], [-119.726437, 34.047908]]]]}}]}