{"type": "FeatureCollection", "features": [{"type": "Feature", "properties": {"dissolve": "105Lake Centerline", "scalerank": 4.0, "featurecla": "Lake Centerline", "name": "Rhein", "name_alt": null, "rivernum": 105, "note": null, "min_zoom": 4.0, "name_en": "Rhein", "min_label": 5.0}, "bbox": [8.881114, 47.511176, 9.554373, 47.695502], "geometry": {"type": "MultiLineString", "coordinates": [[[9.182872, 47.670681], [9.233816, 47.65644], [9.272634, 47.650336], [9.549327, 47.533759], [9.552257, 47.529324], [9.553152, 47.521064], [9.552664, 47.51496], [9.554373, 47.511176]], [[9.127615, 47.670681], [9.079031, 47.688666], [9.052175, 47.695502], [9.028087, 47.694892], [8.987071, 47.677517], [8.965017, 47.671332], [8.947439, 47.665107], [8.928884, 47.659613], [8.907725, 47.655137], [8.893077, 47.656277], [8.881114, 47.656358]]]}}, {"type": "Feature", "properties": {"dissolve": "105River", "scalerank": 4.0, "featurecla": "River", "name": "Rhein", "name_alt": null, "rivernum": 105, "note": null, "min_zoom": 4.0, "name_en": "Rhein", "min_label": 5.0}, "bbox": [8.710216, 46.622667, 9.649832, 47.670681], "geometry": {"type": "MultiLineString", "coordinates": [[[9.127615, 47.670681], [9.182872, 47.670681]], [[9.408702, 46.834581], [9.496267, 46.863105], [9.532237, 46.887478], [9.552745, 46.930772], [9.545909, 46.961371], [9.545909, 46.964301], [9.540457, 46.974677], [9.495616, 47.026475], [9.48463, 47.043158], [9.47698, 47.059882], [9.475352, 47.073513], [9.48699, 47.084255], [9.502371, 47.094997], [9.511892, 47.108344], [9.511241, 47.129665], [9.50294, 47.145616], [9.492198, 47.160102], [9.484386, 47.176581], [9.486827, 47.210273], [9.503917, 47.243964], [9.552745, 47.300116], [9.586843, 47.32807], [9.59075, 47.334906], [9.595876, 47.352566], [9.600515, 47.361518], [9.639171, 47.394802], [9.648936, 47.40998], [9.649832, 47.452257], [9.621104, 47.469509], [9.583995, 47.481024], [9.554373, 47.511176]], [[8.710216, 46.622667], [8.714122, 46.650662], [8.729421, 46.669298], [8.747813, 46.675727], [8.750906, 46.676337], [8.829112, 46.68769], [8.868175, 46.714911], [8.892345, 46.726508], [8.917735, 46.73432], [8.964854, 46.739569], [9.045584, 46.757758], [9.135671, 46.785671], [9.147146, 46.786689], [9.182872, 46.785671], [9.197032, 46.788398], [9.226085, 46.797431], [9.264578, 46.802436], [9.304617, 46.816107], [9.346609, 46.821601], [9.389578, 46.832139], [9.415538, 46.834581]]]}}, {"type": "Feature", "properties": {"dissolve": "140River", "scalerank": 4.0, "featurecla": "River", "name": "Rhin", "name_alt": "Rhein", "rivernum": 140, "note": null, "min_zoom": 4.0, "name_en": "Rhein", "min_label": 5.0}, "bbox": [7.511241, 47.544501, 8.881114, 48.965399], "geometry": {"type": "MultiLineString", "coordinates": [[[8.881114, 47.656358], [8.852061, 47.671007], [8.815684, 47.684272], [8.776541, 47.693671], [8.639822, 47.696234], [8.631521, 47.690497], [8.624522, 47.681505], [8.607351, 47.670681], [8.617442, 47.666327], [8.624522, 47.659044], [8.624766, 47.65058], [8.614268, 47.642686], [8.6067, 47.656562], [8.602468, 47.647488], [8.599864, 47.612616], [8.594412, 47.600531], [8.568044, 47.575466], [8.559581, 47.560818], [8.539317, 47.568671], [8.52296, 47.577663], [8.505138, 47.585028], [8.480154, 47.58808], [8.417491, 47.581081], [8.353526, 47.581244], [8.315684, 47.58808], [8.305837, 47.592475], [8.298757, 47.602118], [8.293386, 47.61168], [8.288097, 47.616034], [8.276541, 47.616889], [8.250499, 47.62226], [8.232432, 47.622138], [8.17864, 47.616034], [8.173269, 47.613796], [8.168386, 47.608913], [8.161632, 47.604031], [8.14324, 47.600369], [8.121593, 47.592393], [8.113292, 47.58808], [8.104991, 47.581488], [8.100841, 47.576443], [8.096446, 47.572089], [8.086681, 47.567654], [8.041677, 47.560818], [7.911632, 47.560818], [7.908946, 47.56505], [7.906993, 47.57449], [7.903738, 47.583848], [7.897634, 47.58808], [7.833181, 47.590766], [7.819102, 47.595526], [7.801036, 47.57628], [7.784923, 47.563422], [7.766124, 47.55622], [7.682872, 47.544501], [7.660899, 47.546495], [7.609141, 47.565009], [7.588552, 47.567654], [7.583507, 47.572943], [7.585378, 47.584255], [7.58961, 47.595038], [7.59197, 47.5987], [7.589773, 47.608222], [7.584646, 47.613471], [7.578136, 47.617214], [7.572032, 47.62226], [7.549734, 47.652696], [7.536143, 47.665473], [7.521251, 47.670681], [7.517345, 47.67532], [7.514089, 47.686062], [7.511241, 47.707587], [7.514822, 47.713568], [7.531505, 47.72545], [7.537364, 47.732123], [7.537771, 47.748399], [7.525401, 47.783393], [7.528087, 47.797309], [7.54241, 47.829657], [7.547862, 47.834499], [7.561453, 47.839545], [7.56365, 47.850653], [7.558523, 47.869249], [7.558604, 47.873725], [7.557872, 47.876288], [7.557302, 47.87877], [7.558523, 47.882921], [7.561453, 47.887397], [7.567882, 47.891628], [7.572032, 47.896593], [7.57838, 47.906562], [7.580089, 47.911078], [7.578868, 47.927314], [7.584483, 47.940701], [7.611095, 47.959662], [7.620616, 47.971706], [7.618419, 48.002875], [7.575206, 48.0539], [7.572032, 48.095242], [7.578298, 48.114773], [7.585134, 48.12995], [7.592296, 48.138861], [7.599132, 48.144965], [7.604259, 48.152859], [7.606375, 48.167182], [7.612804, 48.17947], [7.675955, 48.238715], [7.686534, 48.253241], [7.692882, 48.270128], [7.694998, 48.290473], [7.701915, 48.311469], [7.718028, 48.320258], [7.736339, 48.326931], [7.750255, 48.34162], [7.751475, 48.355577], [7.746349, 48.368964], [7.739757, 48.381659], [7.736583, 48.393744], [7.737804, 48.406806], [7.745128, 48.433295], [7.750255, 48.444648], [7.757091, 48.454169], [7.763682, 48.460639], [7.768809, 48.470323], [7.770763, 48.489325], [7.77589, 48.498399], [7.787852, 48.506537], [7.812918, 48.519802], [7.812918, 48.526638], [7.801199, 48.547797], [7.80128, 48.582587], [7.809744, 48.615261], [7.851817, 48.658962], [7.863536, 48.664374], [7.880056, 48.667914], [7.895437, 48.676825], [7.922781, 48.698554], [7.934581, 48.703559], [7.948009, 48.712185], [7.958669, 48.721625], [7.963145, 48.72956], [7.964366, 48.748643], [7.969656, 48.757514], [7.980968, 48.760037], [8.009044, 48.760362], [8.016775, 48.76203], [8.02239, 48.765326], [8.024587, 48.770819], [8.026785, 48.780341], [8.031423, 48.78559], [8.036062, 48.78852], [8.038259, 48.791042], [8.047048, 48.791287], [8.083669, 48.804389], [8.089773, 48.807807], [8.102224, 48.821601], [8.147472, 48.903998], [8.178722, 48.942939], [8.199718, 48.958848], [8.229991, 48.965399]]]}}, {"type": "Feature", "properties": {"dissolve": "150River", "scalerank": 4.0, "featurecla": "River", "name": "Rhine", "name_alt": null, "rivernum": 150, "note": null, "min_zoom": 4.0, "name_en": "Rhine", "min_label": 5.0}, "bbox": [4.985362, 48.965399, 8.504405, 51.90058], "geometry": {"type": "MultiLineString", "coordinates": [[[8.229991, 48.965399], [8.26238, 48.988349], [8.283458, 49.009833], [8.356944, 49.109442], [8.361339, 49.119452], [8.380544, 49.214708], [8.387136, 49.231879], [8.39796, 49.239122], [8.410655, 49.243516], [8.479747, 49.29682], [8.483328, 49.309394], [8.459727, 49.314887], [8.461681, 49.32331], [8.497569, 49.376288], [8.497488, 49.386339], [8.490977, 49.402899], [8.490001, 49.411078], [8.491873, 49.413031], [8.501394, 49.429023], [8.504405, 49.430935], [8.493663, 49.442491], [8.477712, 49.446234], [8.459402, 49.447618], [8.442312, 49.452012], [8.442312, 49.458848], [8.46339, 49.465684], [8.46339, 49.47252], [8.449962, 49.491075], [8.427501, 49.534044], [8.408214, 49.55504], [8.416677, 49.579291], [8.399832, 49.610216], [8.375255, 49.640937], [8.360362, 49.664333], [8.362071, 49.690741], [8.378917, 49.710273], [8.406261, 49.722276], [8.438894, 49.726386], [8.460623, 49.743598], [8.473643, 49.75727], [8.476492, 49.767361], [8.462413, 49.770941], [8.442068, 49.76789], [8.423595, 49.767157], [8.415701, 49.777615], [8.413585, 49.784532], [8.408458, 49.792548], [8.389659, 49.815131], [8.386241, 49.823676], [8.384044, 49.832139], [8.380138, 49.842393], [8.370291, 49.856472], [8.347423, 49.878363], [8.339854, 49.890896], [8.354991, 49.925482], [8.335216, 49.959499], [8.227957, 50.038031], [8.21282, 50.044257], [8.200613, 50.046169], [8.173595, 50.045681], [8.04835, 50.018256], [8.009532, 49.999132], [7.961681, 49.982978], [7.918468, 49.973741], [7.87794, 49.972846], [7.860118, 49.989854], [7.857188, 50.002468], [7.84962, 50.010565], [7.784923, 50.048367], [7.765147, 50.063666], [7.757091, 50.086127], [7.752371, 50.092963], [7.730154, 50.113349], [7.722911, 50.123603], [7.724294, 50.144639], [7.7199, 50.158393], [7.706065, 50.164618], [7.693044, 50.166856], [7.651296, 50.178819], [7.642996, 50.184678], [7.624278, 50.213935], [7.613048, 50.22602], [7.588145, 50.240912], [7.579275, 50.249945], [7.588552, 50.253974], [7.621837, 50.253852], [7.636485, 50.255723], [7.647878, 50.26081], [7.647878, 50.267646], [7.615896, 50.286892], [7.601003, 50.300482], [7.59197, 50.315456], [7.591238, 50.332221], [7.597179, 50.347968], [7.605968, 50.364366], [7.613048, 50.383653], [7.580821, 50.41116], [7.54363, 50.417548], [7.503429, 50.417507], [7.46282, 50.42532], [7.398448, 50.449774], [7.387218, 50.449164], [7.33253, 50.486762], [7.269298, 50.56684], [7.243093, 50.582953], [7.223318, 50.589179], [7.213308, 50.595811], [7.209483, 50.60871], [7.208995, 50.633816], [7.205496, 50.651068], [7.196544, 50.669623], [7.185313, 50.686591], [7.174978, 50.699001], [7.159109, 50.71015], [7.121023, 50.728705], [7.105968, 50.739936], [7.088634, 50.763739], [7.082042, 50.767279], [7.071218, 50.769477], [7.043386, 50.780382], [7.037771, 50.784695], [7.028087, 50.805528], [7.006602, 50.819892], [6.985362, 50.830512], [6.975597, 50.839911], [6.986257, 50.855414], [7.035574, 50.874945], [7.051443, 50.890815], [6.985606, 50.901719], [6.975597, 50.908474], [6.973562, 50.918402], [6.96461, 50.934027], [6.962657, 50.942654], [6.966319, 50.952826], [6.983897, 50.962429], [6.989268, 50.972724], [6.986257, 50.98017], [6.97755, 50.985622], [6.968028, 50.990017], [6.962657, 50.994452], [6.962657, 51.003974], [6.968679, 51.024197], [6.966075, 51.02794], [6.950613, 51.03323], [6.894298, 51.068915], [6.860037, 51.072781], [6.852794, 51.076361], [6.851329, 51.086778], [6.859141, 51.093044], [6.868907, 51.096788], [6.87379, 51.100287], [6.878103, 51.113878], [6.875662, 51.120673], [6.849376, 51.12755], [6.847911, 51.136542], [6.852794, 51.151475], [6.845714, 51.159695], [6.843435, 51.160834], [6.838878, 51.159003], [6.82545, 51.158311], [6.811046, 51.15115], [6.802175, 51.151068], [6.798106, 51.161444], [6.793142, 51.183539], [6.779714, 51.185248], [6.759776, 51.18126], [6.736095, 51.186225], [6.728038, 51.196479], [6.723399, 51.212348], [6.724294, 51.226996], [6.732921, 51.233425], [6.740896, 51.231309], [6.749522, 51.227729], [6.758311, 51.226142], [6.7671, 51.230292], [6.770274, 51.237576], [6.766124, 51.242621], [6.759776, 51.246772], [6.756521, 51.251085], [6.745372, 51.256415], [6.722423, 51.262152], [6.703868, 51.27086], [6.705333, 51.28559], [6.724783, 51.302924], [6.72877, 51.310614], [6.72991, 51.326239], [6.711355, 51.337104], [6.675955, 51.347602], [6.653738, 51.360134], [6.674571, 51.377468], [6.690929, 51.380439], [6.708995, 51.380886], [6.725027, 51.38288], [6.736095, 51.391059], [6.739268, 51.406806], [6.732432, 51.419867], [6.708751, 51.439521], [6.708751, 51.445665], [6.717296, 51.453396], [6.720632, 51.462592], [6.71697, 51.470323], [6.705333, 51.47366], [6.688894, 51.475409], [6.684825, 51.480048], [6.688487, 51.48664], [6.695079, 51.494086], [6.704763, 51.499945], [6.714854, 51.50255], [6.719249, 51.506944], [6.712169, 51.518337], [6.702647, 51.525743], [6.692312, 51.53144], [6.682302, 51.538275], [6.674571, 51.549384], [6.68572, 51.564968], [6.655935, 51.572048], [6.592052, 51.576687], [6.592052, 51.582831], [6.594005, 51.594184], [6.589285, 51.612616], [6.586681, 51.62991], [6.595876, 51.637478], [6.600597, 51.640733], [6.597097, 51.647976], [6.590343, 51.655382], [6.585867, 51.659247], [6.576427, 51.660956], [6.5442, 51.659247], [6.510509, 51.663845], [6.49171, 51.668647], [6.479177, 51.67536], [6.451671, 51.70364], [6.436209, 51.71369], [6.413992, 51.720038], [6.420339, 51.740912], [6.407481, 51.753607], [6.38502, 51.759874], [6.363048, 51.761583], [6.342214, 51.765692], [6.330496, 51.775946], [6.322276, 51.789333], [6.311534, 51.802558], [6.277761, 51.820868], [6.083507, 51.853949], [6.067882, 51.860622], [6.054698, 51.869981], [6.035167, 51.87934], [6.013845, 51.885321], [5.995535, 51.884548], [5.990977, 51.879747], [5.982351, 51.862738], [5.975108, 51.857204], [5.965831, 51.857001], [5.954519, 51.859687], [5.944998, 51.863634], [5.929454, 51.876776], [5.903738, 51.869981], [5.85963, 51.85102], [5.843923, 51.853217], [5.813243, 51.866523], [5.797537, 51.870185], [5.790701, 51.870185], [5.763927, 51.887315], [5.718761, 51.894477], [5.542979, 51.90058], [5.461681, 51.891954], [5.431407, 51.874783], [5.37379, 51.817939], [5.337576, 51.810004], [5.328136, 51.81391], [5.313894, 51.826117], [5.304128, 51.829901], [5.292735, 51.830146], [5.277273, 51.825141], [5.180593, 51.81623], [5.153738, 51.818386], [5.112966, 51.827745], [5.091807, 51.829901], [4.985362, 51.823676]]]}}, {"type": "Feature", "properties": {"dissolve": "160River", "scalerank": 5.0, "featurecla": "River", "name": "Elbe", "name_alt": null, "rivernum": 160, "note": null, "min_zoom": 4.7, "name_en": "Elbe", "min_label": 5.7}, "bbox": [9.819021, 50.021186, 15.93214, 53.549831], "geometry": {"type": "MultiLineString", "coordinates": [[[10.06544, 53.463284], [10.062022, 53.477973], [10.058604, 53.51557], [10.052989, 53.529364], [10.041433, 53.534206], [9.996755, 53.542263], [9.826427, 53.549831]], [[10.06544, 53.463284], [10.061778, 53.465888], [10.046153, 53.474718], [10.029307, 53.47838], [9.977306, 53.481513], [9.965261, 53.485419], [9.938731, 53.497138], [9.910574, 53.505968], [9.874278, 53.522528], [9.842214, 53.52558], [9.830577, 53.528022], [9.819021, 53.540351]], [[10.065929, 53.461046], [10.06544, 53.463284]], [[12.501801, 51.879177], [12.492849, 51.881944], [12.482351, 51.874213], [12.473643, 51.863105], [12.465017, 51.857204], [12.452322, 51.85932], [12.4463, 51.865994], [12.446218, 51.875027], [12.451427, 51.884548], [12.440359, 51.881781], [12.419688, 51.87226], [12.401622, 51.867255], [12.381033, 51.854071], [12.372569, 51.85102], [12.354747, 51.855048], [12.335134, 51.865261], [12.317882, 51.878526], [12.307302, 51.891954], [12.286876, 51.88581], [12.262136, 51.883979], [12.240977, 51.87995], [12.232188, 51.867133], [12.226573, 51.861599], [12.21461, 51.866034], [12.203543, 51.873643], [12.200938, 51.877712], [12.029552, 51.870185], [12.021251, 51.871894], [12.020681, 51.875759], [12.021739, 51.880439], [12.019298, 51.884548], [11.889659, 51.973904], [11.886892, 51.984442], [11.889903, 51.991278], [11.894542, 51.99726], [11.897146, 52.00495], [11.890391, 52.024115], [11.874685, 52.025743], [11.841807, 52.014838], [11.81837, 52.020372], [11.799083, 52.032742], [11.781423, 52.040391], [11.762706, 52.031928], [11.745616, 52.029242], [11.723155, 52.038926], [11.702403, 52.052843], [11.691091, 52.06269], [11.669444, 52.093858], [11.660085, 52.112413], [11.656261, 52.127794], [11.659434, 52.140652], [11.675955, 52.174872], [11.683604, 52.186143], [11.711681, 52.20185], [11.717703, 52.206651], [11.718761, 52.215522], [11.713796, 52.222683], [11.707286, 52.229438], [11.704031, 52.237657], [11.710704, 52.246853], [11.751882, 52.281806], [11.771739, 52.315131], [11.786143, 52.330512], [11.803966, 52.336982], [11.847097, 52.338813], [11.864757, 52.342882], [11.903005, 52.360907], [11.910655, 52.367499], [11.916921, 52.377997], [11.930105, 52.376532], [11.94044, 52.37873], [11.944021, 52.383857], [11.937429, 52.391669], [11.937429, 52.399034], [11.947927, 52.400458], [11.957205, 52.403428], [11.965017, 52.407579], [11.971446, 52.412136], [11.989024, 52.435981], [11.992117, 52.443183], [11.993175, 52.44831], [11.998302, 52.457628], [11.999522, 52.463935], [11.997244, 52.469591], [11.992442, 52.472113], [11.987478, 52.473822], [11.985281, 52.47724], [11.983409, 52.488593], [11.979177, 52.496039], [11.97462, 52.501776], [11.971446, 52.507676], [11.973399, 52.535712], [12.030284, 52.706895], [12.03297, 52.724311], [12.040212, 52.744249], [12.042003, 52.756659], [12.036794, 52.762152], [12.027843, 52.79206], [12.026134, 52.795722], [12.026866, 52.806098], [12.034434, 52.836249], [12.03948, 52.845038], [12.040457, 52.850898], [12.038097, 52.851752], [12.028494, 52.858262], [12.026134, 52.861151], [12.018972, 52.874579], [12.00172, 52.880479], [11.965343, 52.885077], [11.937999, 52.894843], [11.924571, 52.898139], [11.906749, 52.899359], [11.896658, 52.901557], [11.831716, 52.928087], [11.833263, 52.932481], [11.845225, 52.943427], [11.850597, 52.954942], [11.83839, 52.959296], [11.807058, 52.96015], [11.793142, 52.966986], [11.762706, 52.99494], [11.747081, 52.992947], [11.721609, 52.983995], [11.711436, 52.981879], [11.694021, 52.983832], [11.688975, 52.989814], [11.687429, 52.999335], [11.680431, 53.01203], [11.668875, 53.017157], [11.635753, 53.018012], [11.622081, 53.022244], [11.630382, 53.027411], [11.635997, 53.036933], [11.635671, 53.046088], [11.625499, 53.050157], [11.581065, 53.04267], [11.532156, 53.054511], [11.509044, 53.056342], [11.490489, 53.060614], [11.460704, 53.079291], [11.437755, 53.083686], [11.416759, 53.080756], [11.384044, 53.066962], [11.365489, 53.063829], [11.344005, 53.066189], [11.327403, 53.072292], [11.290701, 53.098334], [11.26238, 53.130561], [11.255626, 53.136054], [11.239513, 53.141872], [11.232107, 53.148627], [11.224539, 53.152899], [11.214366, 53.148871], [11.201182, 53.140326], [11.194265, 53.140815], [11.183849, 53.151923], [11.176036, 53.158718], [11.170177, 53.16531], [11.164317, 53.170722], [11.155935, 53.173692], [11.14324, 53.172553], [11.132986, 53.167507], [11.124766, 53.161973], [11.109141, 53.155585], [11.099539, 53.148383], [11.089285, 53.14407], [11.077403, 53.148871], [11.067882, 53.155382], [11.039968, 53.166205], [10.929942, 53.228339], [10.839122, 53.259955], [10.80714, 53.275458], [10.786632, 53.29328], [10.774913, 53.300116], [10.755626, 53.302802], [10.739268, 53.308295], [10.734548, 53.32156], [10.734141, 53.337714], [10.731375, 53.351833], [10.709646, 53.368232], [10.675304, 53.373562], [10.601085, 53.371649], [10.569347, 53.363715], [10.52825, 53.37226], [10.386241, 53.423692], [10.350352, 53.431912], [10.285085, 53.432481], [10.275808, 53.430609], [10.26588, 53.426947], [10.243582, 53.409247], [10.241384, 53.40644], [10.186453, 53.404242], [10.169688, 53.40644], [10.153494, 53.41352], [10.142833, 53.422553], [10.131277, 53.430447], [10.111095, 53.433702], [10.098888, 53.439317], [10.06544, 53.463284]], [[12.501801, 51.879177], [12.501475, 51.879584], [12.499197, 51.884548], [12.506602, 51.877712], [12.501801, 51.879177]], [[13.191173, 51.47366], [13.190196, 51.486029], [13.184744, 51.491523], [13.175548, 51.493232], [13.163829, 51.494086], [13.157644, 51.492499], [13.152761, 51.487738], [13.150076, 51.482774], [13.149669, 51.480414], [13.144216, 51.481513], [13.139822, 51.483913], [13.137218, 51.486274], [13.136648, 51.487331], [13.118907, 51.494086], [13.100027, 51.505072], [13.08074, 51.512397], [13.061453, 51.508368], [13.0595, 51.527696], [13.047781, 51.537299], [13.032481, 51.54267], [13.019949, 51.549384], [13.009044, 51.563747], [13.009532, 51.573065], [13.027354, 51.596503], [13.007335, 51.605414], [12.964041, 51.637803], [12.941661, 51.644965], [12.929617, 51.646186], [12.91448, 51.649726], [12.901785, 51.655219], [12.89088, 51.669949], [12.861827, 51.668158], [12.848562, 51.672227], [12.843679, 51.679755], [12.828787, 51.713813], [12.820811, 51.723944], [12.81658, 51.728095], [12.814708, 51.732693], [12.809011, 51.787665], [12.81422, 51.809353], [12.83546, 51.823676], [12.822439, 51.828884], [12.653087, 51.863715], [12.618907, 51.867051], [12.587901, 51.857204], [12.573253, 51.866238], [12.549815, 51.870144], [12.525157, 51.869249], [12.506602, 51.86404], [12.506765, 51.870917], [12.504568, 51.875515], [12.501801, 51.879177]], [[15.582774, 50.692816], [15.590343, 50.684638], [15.612804, 50.650173], [15.617442, 50.640937], [15.617686, 50.618191], [15.619802, 50.601142], [15.625743, 50.587673], [15.63795, 50.575507], [15.665294, 50.564399], [15.701345, 50.555365], [15.733084, 50.541083], [15.747813, 50.514024], [15.743419, 50.498358], [15.73585, 50.480414], [15.737071, 50.465522], [15.766368, 50.457831], [15.788015, 50.449774], [15.809988, 50.4383], [15.811209, 50.436062], [15.814871, 50.427436], [15.816173, 50.42532], [15.884288, 50.404405], [15.916515, 50.386908], [15.917572, 50.370225]], [[15.917572, 50.370225], [15.917979, 50.363837], [15.917979, 50.370673], [15.917572, 50.370225]], [[15.917572, 50.370225], [15.911794, 50.363837], [15.924571, 50.3581], [15.93214, 50.356391], [15.93214, 50.350165], [15.92335, 50.344184], [15.891775, 50.328437], [15.882091, 50.319648], [15.864513, 50.294949], [15.830496, 50.262641], [15.820486, 50.2414], [15.829763, 50.219794], [15.815359, 50.191352], [15.811453, 50.178046], [15.809988, 50.158393], [15.81129, 50.137234], [15.807384, 50.12519], [15.795665, 50.109931], [15.844005, 50.082709], [15.844005, 50.075222], [15.816173, 50.062201], [15.781505, 50.05036], [15.77825, 50.048529], [15.677257, 50.048774], [15.62086, 50.041083], [15.3838, 50.047919], [15.363292, 50.044623], [15.344981, 50.038845], [15.336925, 50.030829], [15.261241, 50.021186], [15.243907, 50.023261], [15.215261, 50.032253], [15.202891, 50.034247], [15.190359, 50.039822], [15.170339, 50.06623], [15.158865, 50.075222], [15.163748, 50.090196], [15.16155, 50.105048], [15.154307, 50.11876], [15.144542, 50.130439], [15.139089, 50.133857], [15.117198, 50.14411], [15.11199, 50.148708], [15.10198, 50.15998], [15.09669, 50.164618], [15.064626, 50.178046], [15.035655, 50.177069], [14.973155, 50.164618], [14.856456, 50.178819], [14.82488, 50.176785], [14.790538, 50.170722], [14.756847, 50.168647], [14.726817, 50.178819], [14.707042, 50.174831], [14.683767, 50.181912], [14.644216, 50.205593], [14.615652, 50.22956], [14.610118, 50.229438], [14.605398, 50.238959], [14.594168, 50.238105], [14.580577, 50.23371], [14.569102, 50.232856], [14.564626, 50.23725], [14.540212, 50.255968], [14.534353, 50.257392], [14.533132, 50.258165], [14.528087, 50.271511], [14.526866, 50.277045], [14.528087, 50.284857], [14.527517, 50.287462], [14.524669, 50.288031], [14.516612, 50.286811], [14.513927, 50.287462], [14.508474, 50.292304], [14.503184, 50.294501], [14.490001, 50.294949], [14.485118, 50.297919], [14.48699, 50.304267], [14.490977, 50.310248], [14.493419, 50.312323], [14.493337, 50.323432], [14.491384, 50.332872], [14.485525, 50.339626], [14.472911, 50.342719], [14.452159, 50.353095], [14.45338, 50.366156], [14.459972, 50.380439], [14.455577, 50.394232], [14.438406, 50.404649], [14.401134, 50.419379], [14.386974, 50.428738], [14.375418, 50.44538], [14.369314, 50.459744], [14.360037, 50.469916], [14.339285, 50.4737], [14.322439, 50.470526], [14.305919, 50.461982], [14.293468, 50.449652], [14.288585, 50.435248], [14.283458, 50.43244], [14.249766, 50.432156], [14.241628, 50.435126], [14.239675, 50.44241], [14.240245, 50.451443], [14.239513, 50.459418], [14.235281, 50.47663], [14.233165, 50.492255], [14.22755, 50.506659], [14.21282, 50.52029], [14.196544, 50.526638], [14.149343, 50.534451], [14.130382, 50.534532], [14.092947, 50.522162], [14.073985, 50.519477], [14.054617, 50.527655], [14.062022, 50.534532], [14.046886, 50.545518], [14.03948, 50.558661], [14.034923, 50.571845], [14.027843, 50.582953], [14.048106, 50.595526], [14.067556, 50.601142], [14.074636, 50.60871], [14.05836, 50.627021], [14.045828, 50.647976], [14.064138, 50.657497], [14.093272, 50.662177], [14.132498, 50.676337], [14.15797, 50.676785], [14.182384, 50.680609], [14.198497, 50.699001], [14.196462, 50.717597], [14.188243, 50.73725], [14.188894, 50.754747], [14.21282, 50.767279], [14.205984, 50.774726], [14.22405, 50.7862], [14.232188, 50.793524], [14.239513, 50.802069], [14.232188, 50.810004], [14.225597, 50.824571], [14.220876, 50.840644], [14.219005, 50.853217], [14.223155, 50.869981], [14.229666, 50.876776], [14.230154, 50.883857], [14.215994, 50.901679], [14.202078, 50.908881], [14.103526, 50.926337], [14.062022, 50.925605], [14.065115, 50.93476], [14.070811, 50.941474], [14.078624, 50.945176], [14.088634, 50.946072], [14.069509, 50.95954], [14.0442, 50.960069], [14.000011, 50.953477], [13.964366, 50.964789], [13.951834, 50.966498], [13.908458, 50.964057], [13.896983, 50.966498], [13.891531, 50.972113], [13.886485, 50.988593], [13.879812, 50.997585], [13.804454, 51.065782], [13.792003, 51.070502], [13.778819, 51.068386], [13.765391, 51.064154], [13.75294, 51.06269], [13.741384, 51.065782], [13.719737, 51.07453], [13.690359, 51.076972], [13.683279, 51.078925], [13.664806, 51.090033], [13.638927, 51.099433], [13.561778, 51.117377], [13.419444, 51.200263], [13.403494, 51.213568], [13.415538, 51.232733], [13.413097, 51.254014], [13.399913, 51.276557], [13.379893, 51.29918], [13.366628, 51.30744], [13.351248, 51.310085], [13.318126, 51.309149], [13.299246, 51.312852], [13.292654, 51.322333], [13.290457, 51.33454], [13.283946, 51.346706], [13.271007, 51.351101], [13.254649, 51.350287], [13.240164, 51.352078], [13.232839, 51.364366], [13.239024, 51.373481], [13.251638, 51.375556], [13.256358, 51.380561], [13.239024, 51.398505], [13.232188, 51.401313], [13.216238, 51.403144], [13.208263, 51.408474], [13.205577, 51.412909], [13.198009, 51.432685], [13.197276, 51.446967], [13.199718, 51.457872], [13.197927, 51.466498], [13.184337, 51.47366]]]}}, {"type": "Feature", "properties": {"dissolve": "25River", "scalerank": 2.0, "featurecla": "River", "name": "Danube", "name_alt": null, "rivernum": 25, "note": null, "min_zoom": 2.1, "name_en": "Danube", "min_label": 3.1}, "bbox": [17.206472, 43.650336, 28.747, 48.061103], "geometry": {"type": "MultiLineString", "coordinates": [[[17.206472, 48.061103], [17.242931, 48.041327], [17.256521, 48.028103], [17.261729, 48.009304], [17.272227, 48.005561], [17.337413, 47.998969], [17.36907, 47.981472], [17.471446, 47.889106], [17.481456, 47.882921], [17.49171, 47.880072], [17.516856, 47.876532], [17.526134, 47.872382], [17.559825, 47.838243], [17.572032, 47.829779], [17.582449, 47.830024], [17.59254, 47.833441], [17.60377, 47.834499], [17.618582, 47.829535], [17.639415, 47.819444], [17.657888, 47.807563], [17.665782, 47.797309], [17.676036, 47.789415], [17.741466, 47.765652], [17.825206, 47.750271], [18.112234, 47.762722], [18.235362, 47.754177], [18.272472, 47.756456], [18.347341, 47.776964], [18.552013, 47.793158], [18.596934, 47.79088], [18.633311, 47.780097], [18.663097, 47.77619], [18.692393, 47.778184], [18.716726, 47.788357], [18.749766, 47.813829], [18.7671, 47.822577], [18.789806, 47.826606], [18.882253, 47.825954], [18.898123, 47.823798], [18.911143, 47.819607], [18.915294, 47.815863], [18.922781, 47.805976], [18.927908, 47.802802], [18.948497, 47.803087], [19.013845, 47.828966], [19.039073, 47.83043], [19.063243, 47.826483], [19.085948, 47.817206], [19.106863, 47.802843], [19.123057, 47.775458], [19.128347, 47.736396], [19.124034, 47.693427], [19.11199, 47.65412], [19.054454, 47.540391], [19.050548, 47.506171], [19.053722, 47.49669], [19.062266, 47.485419], [19.06422, 47.478217], [19.062266, 47.468451], [19.052745, 47.454047], [19.050548, 47.447821], [19.046804, 47.425564], [19.036388, 47.412543], [19.002126, 47.396308], [18.974376, 47.379462], [18.952566, 47.357001], [18.934988, 47.328477], [18.920177, 47.29328], [18.907644, 47.237494], [18.886974, 47.208197], [18.881358, 47.189643], [18.878917, 47.169013], [18.879161, 47.149237], [18.889171, 47.110419], [18.896902, 47.090277], [18.903087, 47.08161], [18.918712, 47.074042], [18.968028, 47.03323], [18.966726, 47.023749], [18.962087, 47.017198], [18.95696, 47.011746], [18.954356, 47.005316], [18.955089, 46.994737], [18.96046, 46.977484], [18.96697, 46.935858], [18.966563, 46.917304], [18.958018, 46.909044], [18.948904, 46.903917], [18.938975, 46.891791], [18.930919, 46.877224], [18.927501, 46.865017], [18.926036, 46.835273], [18.927501, 46.827175], [18.933116, 46.820583], [18.950613, 46.807156], [18.954356, 46.803534], [18.958425, 46.800849], [18.975352, 46.784003], [18.978526, 46.779975], [18.984793, 46.775662], [18.986827, 46.765489], [18.987559, 46.753974], [18.989024, 46.745185], [18.998953, 46.723212], [19.00172, 46.708523], [18.996349, 46.694892], [18.981619, 46.676337], [18.952891, 46.656195], [18.885265, 46.635321], [18.858165, 46.614854], [18.877208, 46.591173], [18.907644, 46.531806], [18.920177, 46.498847], [18.922781, 46.468695], [18.898936, 46.414374], [18.892263, 46.378445], [18.895518, 46.362901], [18.910085, 46.342963], [18.913341, 46.330634], [18.914968, 46.195258], [18.903575, 46.173041], [18.872325, 46.183458], [18.825206, 46.141547], [18.813406, 46.126166], [18.794119, 46.116726], [18.789806, 46.111518], [18.785167, 46.11225], [18.775157, 46.102973], [18.762462, 46.087266], [18.700369, 46.044786], [18.691661, 46.0185], [18.721609, 45.984931], [18.806163, 45.923611], [18.831472, 45.895535], [18.832449, 45.891059], [18.830577, 45.879503], [18.831472, 45.875067], [18.835216, 45.873481], [18.841319, 45.873969], [18.847423, 45.873155], [18.85198, 45.868191], [18.853933, 45.859239], [18.85198, 45.830349], [18.849864, 45.82449], [18.846202, 45.820258], [18.844493, 45.815945], [18.848155, 45.809841], [18.863536, 45.798774], [18.870616, 45.790229], [18.899669, 45.765163], [18.904307, 45.750067], [18.908458, 45.719672], [18.916759, 45.706855], [18.930431, 45.699083], [18.947683, 45.692328], [18.962087, 45.683295], [18.968028, 45.668972], [18.962413, 45.660346], [18.934825, 45.633612], [18.923839, 45.627997], [18.911876, 45.619452], [18.907725, 45.600653], [18.906505, 45.581895], [18.903087, 45.57331], [18.91155, 45.568427], [18.93157, 45.545762], [18.941335, 45.539252], [18.959646, 45.539374], [18.972667, 45.546495], [18.982677, 45.554999], [19.000173, 45.561469], [19.008718, 45.565741], [19.017589, 45.567572], [19.026622, 45.562812], [19.032725, 45.554877], [19.035899, 45.54975], [19.040294, 45.545274], [19.050548, 45.539252], [19.067312, 45.533637], [19.081798, 45.53144], [19.094493, 45.526313], [19.105724, 45.511908], [19.076589, 45.491889], [19.009044, 45.498887], [18.99586, 45.474066], [19.002452, 45.455593], [19.031016, 45.43419], [19.036794, 45.422553], [19.028087, 45.412421], [18.975352, 45.395209], [18.988292, 45.379462], [19.003184, 45.3664], [19.020518, 45.357489], [19.040212, 45.354275], [19.081554, 45.354275], [19.091319, 45.350287], [19.094737, 45.340766], [19.095714, 45.329413], [19.098318, 45.320136], [19.124278, 45.298407], [19.16155, 45.285264], [19.362722, 45.248481], [19.406749, 45.248969], [19.490896, 45.264268], [19.529552, 45.266872], [19.557628, 45.255805], [19.571707, 45.236599], [19.580496, 45.23078], [19.598562, 45.227851], [19.658132, 45.234442], [19.698497, 45.24669], [19.741954, 45.245063], [19.784923, 45.237494], [19.810802, 45.227851], [19.817068, 45.231716], [19.831716, 45.238145], [19.838145, 45.242133], [19.846609, 45.250556], [19.855642, 45.265082], [19.862478, 45.272813], [19.88087, 45.282294], [19.898611, 45.279364], [19.914317, 45.268907], [19.927501, 45.255805], [19.949392, 45.218695], [19.965587, 45.198554], [19.985606, 45.189765], [20.04241, 45.177761], [20.064708, 45.175482], [20.184988, 45.185004], [20.222423, 45.175482], [20.257009, 45.156765], [20.28948, 45.13227], [20.345876, 45.073065], [20.356944, 45.034491], [20.333263, 45.010565], [20.303966, 44.993964], [20.298106, 44.977484], [20.290701, 44.977484], [20.303233, 44.954657], [20.318858, 44.934394], [20.396902, 44.864569], [20.408458, 44.857042], [20.455089, 44.840277], [20.514171, 44.836859], [20.545909, 44.839789], [20.580333, 44.857367], [20.594981, 44.857978], [20.623709, 44.8546], [20.636404, 44.849433], [20.638601, 44.837348], [20.628184, 44.788601], [20.62794, 44.777045], [20.633311, 44.765204], [20.64446, 44.755805], [20.671886, 44.743964], [20.684825, 44.733507], [20.720388, 44.696234], [20.741954, 44.679226], [20.763682, 44.668402], [20.826427, 44.660956], [20.88323, 44.672675], [20.989513, 44.716824], [21.07781, 44.726508], [21.102794, 44.740668], [21.112234, 44.744818], [21.125662, 44.745632], [21.15089, 44.744086], [21.163829, 44.74787], [21.172293, 44.756903], [21.179454, 44.768093], [21.188894, 44.778266], [21.222423, 44.796698], [21.26946, 44.813666], [21.319102, 44.825059], [21.360118, 44.826687], [21.37794, 44.816921], [21.395274, 44.790473], [21.411632, 44.785102], [21.496593, 44.778266], [21.557872, 44.781846], [21.577566, 44.777899], [21.594981, 44.766181], [21.603689, 44.750312], [21.609793, 44.732204], [21.619151, 44.714179], [21.655691, 44.687934], [21.7046, 44.677273], [21.756277, 44.677517], [21.801199, 44.684149], [21.83782, 44.695421], [21.854991, 44.698757], [21.871511, 44.696234], [21.961843, 44.662543], [21.993826, 44.6588], [22.003835, 44.651719], [22.031668, 44.603583], [22.039317, 44.577094], [22.044688, 44.569403], [22.055186, 44.562364], [22.06658, 44.557481], [22.075694, 44.550971], [22.086436, 44.52204], [22.10377, 44.509874], [22.12615, 44.502956], [22.147716, 44.501166], [22.171641, 44.505642], [22.184581, 44.515408], [22.298513, 44.661933], [22.304454, 44.677598], [22.319265, 44.685614], [22.360606, 44.692328], [22.380056, 44.700751], [22.414968, 44.728095], [22.425548, 44.733913], [22.450125, 44.733222], [22.468435, 44.730414], [22.483165, 44.724229], [22.552745, 44.66946], [22.586925, 44.649604], [22.620616, 44.637722], [22.699474, 44.630886], [22.714285, 44.623358], [22.764822, 44.583075], [22.7588, 44.564887], [22.74114, 44.55211], [22.718923, 44.544623], [22.699474, 44.5421], [22.677989, 44.545722], [22.641531, 44.5633], [22.620616, 44.569403], [22.599783, 44.570095], [22.579845, 44.565741], [22.565115, 44.555732], [22.559337, 44.539008], [22.556163, 44.521674], [22.547862, 44.51199], [22.534923, 44.507758], [22.499929, 44.506659], [22.490489, 44.504462], [22.483572, 44.500027], [22.479259, 44.490668], [22.476573, 44.47724], [22.476492, 44.464179], [22.479503, 44.456081], [22.500499, 44.442165], [22.504893, 44.435248], [22.50587, 44.427802], [22.503429, 44.411933], [22.504649, 44.404324], [22.522227, 44.375312], [22.548757, 44.349229], [22.582286, 44.328681], [22.620616, 44.31623], [22.662039, 44.311957], [22.681082, 44.305528], [22.688975, 44.291938], [22.684744, 44.243923], [22.690115, 44.229193], [22.905935, 44.123114], [22.942149, 44.111762], [22.987559, 44.107245], [23.030528, 44.093329], [23.039561, 44.062608], [23.022472, 44.031846], [22.987559, 44.01789], [22.96575, 44.015733], [22.926036, 44.006415], [22.905284, 44.004218], [22.885427, 43.994737], [22.874197, 43.972276], [22.850027, 43.897244], [22.850515, 43.874579], [22.862966, 43.855658], [22.888194, 43.839789], [22.919119, 43.834499], [23.131358, 43.848212], [23.161388, 43.857611], [23.196462, 43.862982], [23.233897, 43.877509], [23.324555, 43.886827]], [[23.324555, 43.886827], [23.326427, 43.88703], [23.319591, 43.88703], [23.324555, 43.886827]], [[23.324555, 43.886827], [23.484141, 43.880805], [23.592052, 43.837673], [23.635509, 43.832384], [23.720225, 43.846055], [23.742198, 43.842963], [23.79949, 43.818712], [24.158865, 43.753201], [24.357677, 43.760281], [24.374929, 43.764106], [24.430593, 43.794379], [24.46575, 43.80268], [24.499685, 43.79975], [24.705089, 43.743964], [24.752126, 43.739081], [24.963145, 43.749864], [25.081065, 43.719184], [25.210704, 43.712104], [25.251882, 43.704901], [25.288178, 43.689276], [25.322358, 43.669949], [25.358979, 43.654486], [25.402599, 43.650336], [25.425385, 43.654608], [25.466889, 43.667996], [25.488292, 43.670762], [25.533295, 43.668972], [25.556082, 43.670681], [25.574636, 43.677598], [25.593354, 43.680935], [25.615977, 43.688015], [25.637462, 43.697577], [25.653087, 43.708319], [25.670909, 43.717597], [25.739024, 43.719184], [25.780528, 43.732245], [25.803966, 43.760199], [25.805756, 43.763943], [25.838796, 43.788642], [25.868744, 43.801134], [25.916026, 43.844591], [25.924083, 43.858913], [25.933523, 43.870551], [26.053722, 43.934597], [26.061127, 43.950019], [26.078868, 43.969265], [26.115733, 43.999091], [26.150157, 44.012722], [26.230886, 44.027777], [26.309988, 44.052843], [26.613699, 44.08515], [26.647227, 44.093614], [26.667247, 44.095323], [26.67685, 44.097357], [26.696788, 44.106309], [26.708263, 44.108344], [26.753184, 44.108344], [26.788992, 44.116238], [26.883556, 44.156806], [27.001069, 44.165351], [27.026947, 44.177314], [27.09962, 44.144721], [27.205007, 44.129462], [27.226166, 44.120917], [27.266612, 44.137763], [27.292247, 44.151435], [27.444753, 44.133979], [27.461029, 44.137641], [27.481619, 44.145697], [27.499278, 44.155788], [27.506765, 44.165351], [27.51588, 44.172553], [27.568777, 44.195421], [27.607839, 44.205349], [27.691661, 44.204413], [27.732677, 44.209744], [27.753022, 44.218695], [27.788585, 44.239691], [27.933849, 44.265937], [27.967296, 44.280382], [27.993256, 44.304267], [28.047944, 44.398057], [28.057058, 44.405707], [28.098562, 44.430243], [28.109955, 44.44245], [28.108816, 44.457709], [28.10198, 44.478339], [28.093191, 44.496649], [28.085867, 44.504503], [28.066824, 44.507025], [28.042491, 44.513373], [28.020112, 44.522162], [28.006928, 44.531846], [28.003673, 44.53974], [28.015066, 44.543158], [28.021251, 44.552314], [28.021088, 44.587836], [28.027843, 44.59809], [28.033376, 44.621649], [28.034434, 44.630805], [28.030528, 44.636908], [27.977794, 44.679145], [27.960053, 44.686306], [27.935069, 44.68891], [27.916108, 44.694363], [27.898448, 44.707953], [27.884288, 44.725898], [27.87672, 44.744086], [27.883311, 44.756903], [27.877371, 44.765326], [27.863292, 44.769965], [27.845714, 44.77143], [27.828868, 44.77912], [27.81837, 44.795966], [27.814708, 44.812771], [27.818777, 44.820502], [27.833995, 44.830878], [27.859386, 44.855048], [27.878835, 44.882107], [27.87672, 44.90115], [27.889252, 44.926215], [27.894216, 44.956977], [27.890554, 44.985867], [27.87672, 45.004828], [27.907237, 45.053168], [27.911388, 45.069363], [27.917572, 45.08161], [27.944916, 45.11282], [27.951752, 45.128363], [27.950206, 45.137152], [27.941173, 45.153347], [27.93808, 45.161811], [27.93808, 45.20657], [27.941661, 45.224229], [28.006358, 45.324815], [28.010346, 45.333808], [28.018077, 45.343126], [28.028819, 45.387478], [28.034434, 45.402045], [28.048595, 45.413764], [28.066987, 45.422553], [28.087169, 45.428046], [28.106619, 45.429999], [28.127533, 45.426785], [28.169526, 45.414984], [28.185151, 45.415635], [28.193614, 45.423163], [28.201671, 45.443142], [28.212413, 45.450466], [28.237071, 45.452338], [28.266368, 45.440741], [28.285818, 45.421983], [28.280772, 45.402045], [28.310313, 45.34809], [28.329682, 45.323106], [28.352631, 45.31269], [28.369721, 45.309516], [28.404714, 45.295356], [28.493663, 45.27912], [28.576589, 45.248358], [28.709483, 45.22724], [28.747, 45.23074]]]}}, {"type": "Feature", "properties": {"dissolve": "38River", "scalerank": 2.0, "featurecla": "River", "name": "Donau", "name_alt": "Danube", "rivernum": 38, "note": null, "min_zoom": 2.1, "name_en": "Danube", "min_label": 3.1}, "bbox": [8.17921, 47.91706, 17.206472, 49.027533], "geometry": {"type": "MultiLineString", "coordinates": [[[12.5088, 48.927598], [12.506602, 48.93126]], [[12.5088, 48.927598], [12.506602, 48.923855]], [[8.17921, 48.093533], [8.195079, 48.076036], [8.212087, 48.056708], [8.230642, 48.04739], [8.275564, 48.04975], [8.291515, 48.04682], [8.305919, 48.038113], [8.313975, 48.027289], [8.320486, 48.015163], [8.329356, 48.002387], [8.336111, 47.998969], [8.345388, 47.998114], [8.36378, 47.998969], [8.372, 47.997423], [8.37672, 47.993598], [8.381033, 47.989081], [8.387706, 47.985378], [8.419363, 47.97956], [8.435476, 47.973171], [8.442312, 47.961493], [8.44573, 47.944892], [8.455333, 47.93419], [8.47047, 47.92947], [8.490001, 47.930732], [8.508311, 47.938788], [8.519705, 47.947781], [8.530935, 47.949083], [8.548757, 47.934434], [8.562755, 47.92654], [8.597179, 47.923692], [8.614268, 47.91706], [8.639089, 47.927354], [8.764415, 47.938178], [8.764089, 47.957831], [8.781749, 47.971544], [8.844737, 48.00198], [8.894786, 48.040595], [8.918956, 48.035468], [8.927013, 48.029975], [8.914561, 48.020087], [8.914561, 48.012641], [8.942312, 48.0185], [8.956798, 48.023261], [8.963145, 48.030056], [8.961599, 48.036811], [8.959239, 48.039903], [8.959972, 48.043158], [8.967214, 48.050482], [8.974376, 48.053046], [8.993337, 48.054714], [8.997244, 48.057644], [9.013682, 48.077989], [9.050059, 48.090888], [9.087657, 48.093126], [9.107107, 48.08157], [9.114513, 48.08157], [9.123709, 48.087714], [9.138601, 48.086982], [9.172618, 48.08157], [9.180919, 48.082709], [9.202647, 48.088975], [9.210867, 48.088202], [9.214529, 48.086249], [9.217296, 48.083808], [9.223155, 48.08157], [9.34669, 48.067328], [9.377126, 48.073065], [9.402599, 48.087348], [9.462657, 48.141954], [9.511892, 48.205105], [9.518565, 48.211859], [9.524587, 48.223456], [9.530447, 48.232123], [9.538992, 48.239081], [9.552745, 48.245429], [9.568126, 48.248481], [9.58489, 48.248481], [9.607921, 48.245429], [9.631277, 48.239285], [9.640147, 48.238552], [9.670339, 48.239936], [9.683767, 48.238796], [9.696707, 48.239569], [9.710378, 48.245429], [9.743663, 48.272773], [9.75823, 48.280788], [9.772878, 48.284613], [9.819591, 48.287055], [9.833995, 48.291938], [9.855154, 48.307318], [9.867442, 48.314276], [9.909597, 48.326687], [9.915782, 48.327948], [9.943126, 48.346503], [10.036388, 48.433295], [10.046153, 48.437812], [10.068044, 48.442939], [10.175792, 48.451483], [10.196544, 48.456], [10.234386, 48.469753], [10.313975, 48.480292], [10.370128, 48.498155], [10.387462, 48.508734], [10.394949, 48.52322], [10.399669, 48.546454], [10.412039, 48.561469], [10.429617, 48.57038], [10.570811, 48.600857], [10.608572, 48.615912], [10.656179, 48.645819], [10.694835, 48.654731], [10.709239, 48.665961], [10.721934, 48.679511], [10.73821, 48.691107], [10.805593, 48.715766], [10.884044, 48.7331], [11.3803, 48.747423], [11.395763, 48.750434], [11.403575, 48.753119], [11.430919, 48.771674], [11.440603, 48.774237], [11.519054, 48.767401], [11.605398, 48.773749], [11.648204, 48.782009], [11.683604, 48.794135], [11.749441, 48.834662], [11.758067, 48.841498], [11.766124, 48.849392], [11.774181, 48.86164], [11.785167, 48.886827], [11.793468, 48.896552], [11.798757, 48.896796], [11.813731, 48.890692], [11.820567, 48.891628], [11.834972, 48.903998], [11.858816, 48.914984], [11.881277, 48.917751], [11.958751, 48.916612], [11.965343, 48.91767], [11.970225, 48.921413], [11.97877, 48.933458], [11.985281, 48.937445], [11.999766, 48.937934], [12.01116, 48.934516], [12.021251, 48.934394], [12.03297, 48.944892], [12.01588, 48.953315], [12.00172, 48.955878], [11.99822, 48.959825], [12.031912, 48.985907], [12.039561, 48.993964], [12.038829, 49.00495], [12.03297, 49.027533], [12.115896, 49.026475], [12.157156, 49.020453], [12.190603, 49.006415], [12.220225, 49.019314], [12.265066, 49.021796], [12.312266, 49.01496], [12.348888, 49.00019], [12.343923, 48.992377], [12.332774, 48.980333], [12.328543, 48.972235], [12.413259, 48.970811], [12.444753, 48.964667], [12.458507, 48.966091], [12.465017, 48.965399], [12.470958, 48.961737], [12.472585, 48.957221], [12.474783, 48.953396], [12.482432, 48.951768], [12.502859, 48.951768], [12.506602, 48.950507], [12.511648, 48.947821], [12.518321, 48.94538], [12.527029, 48.944892], [12.527029, 48.937445], [12.517589, 48.937934], [12.51295, 48.934841], [12.5088, 48.927598]], [[17.206472, 48.061103], [17.180186, 48.069851], [17.157888, 48.08572], [17.146169, 48.107978], [17.151866, 48.136176], [17.132742, 48.144802], [17.056326, 48.143622], [17.031993, 48.152615], [17.010265, 48.166531], [16.987559, 48.177354], [16.960704, 48.177191], [16.950694, 48.160712], [16.947032, 48.156684], [16.941824, 48.155585], [16.922862, 48.156684], [16.914073, 48.155341], [16.864675, 48.136908], [16.749685, 48.128974], [16.586436, 48.143256], [16.549571, 48.155056], [16.487071, 48.184638], [16.418712, 48.227322], [16.393321, 48.250759], [16.371593, 48.280788], [16.352061, 48.329617], [16.321056, 48.374864], [16.31072, 48.381659], [16.297374, 48.385037], [16.28297, 48.386013], [16.254893, 48.383734], [16.243175, 48.380968], [16.22047, 48.372504], [16.208914, 48.369818], [16.094168, 48.35932], [15.94573, 48.363389], [15.911794, 48.372382], [15.876882, 48.395046], [15.856375, 48.404364], [15.833995, 48.408759], [15.811209, 48.409003], [15.763113, 48.402899], [15.751231, 48.404731], [15.723806, 48.415229], [15.710134, 48.417792], [15.673839, 48.419867], [15.639578, 48.425645], [15.608409, 48.427191], [15.524669, 48.414008], [15.519542, 48.41531], [15.512625, 48.42182], [15.508718, 48.424384], [15.489431, 48.423407], [15.467052, 48.413153], [15.42921, 48.388048], [15.41212, 48.366238], [15.397878, 48.306708], [15.384044, 48.280788], [15.356456, 48.25849], [15.323741, 48.244005], [15.240733, 48.225531], [15.15504, 48.218085], [15.133718, 48.211982], [15.104259, 48.186794], [15.087657, 48.183132], [15.078868, 48.186103], [15.060557, 48.196234], [15.051199, 48.200019], [15.027761, 48.204169], [15.003917, 48.205105], [14.987804, 48.209093], [14.952647, 48.236925], [14.94044, 48.241889], [14.929373, 48.243842], [14.879893, 48.242214], [14.861827, 48.236884], [14.846934, 48.227362], [14.832286, 48.21308], [14.818533, 48.205512], [14.675304, 48.182318], [14.65447, 48.18655], [14.63738, 48.196967], [14.610118, 48.223334], [14.597097, 48.2331], [14.582042, 48.240058], [14.564871, 48.244086], [14.459239, 48.245429], [14.4428, 48.248887], [14.395925, 48.266303], [14.37322, 48.281521], [14.342703, 48.293809], [14.333995, 48.302558], [14.319265, 48.320909], [14.307791, 48.327948], [14.278005, 48.311469], [14.240489, 48.315985], [14.168224, 48.335395], [14.152029, 48.332953], [14.11671, 48.322943], [14.09669, 48.321723], [14.062429, 48.324774], [14.049083, 48.32921], [14.037527, 48.338487], [14.027843, 48.355658], [14.018565, 48.395697], [14.010997, 48.412869], [13.999929, 48.421739], [13.986746, 48.42414], [13.958507, 48.423448], [13.941335, 48.427354], [13.894542, 48.45185], [13.871593, 48.458767], [13.823985, 48.461249], [13.801199, 48.467882], [13.746104, 48.50906], [13.726248, 48.519802], [13.672862, 48.535712], [13.657644, 48.551337], [13.641124, 48.559353], [13.62379, 48.565619], [13.520193, 48.584825], [13.486583, 48.581855], [13.424571, 48.581855], [13.413259, 48.585761], [13.388845, 48.598904], [13.379893, 48.601671], [13.318126, 48.609158], [13.259532, 48.609158], [13.235037, 48.617987], [13.190684, 48.644477], [13.167247, 48.650092], [13.115489, 48.674343], [13.111501, 48.684149], [13.09075, 48.695258], [13.08196, 48.704698], [13.086192, 48.706366], [13.095632, 48.712185], [13.083263, 48.719184], [13.060069, 48.728461], [13.037527, 48.732123], [13.027354, 48.722439], [13.021414, 48.718288], [13.010671, 48.724921], [13.005382, 48.734565], [13.016856, 48.739529], [13.029959, 48.742987], [13.032888, 48.751247], [13.030284, 48.760565], [13.027354, 48.767401], [13.016775, 48.782538], [12.972585, 48.826483], [12.955007, 48.83572], [12.917003, 48.842312], [12.911306, 48.845649], [12.874685, 48.844672], [12.862234, 48.849392], [12.833018, 48.831081], [12.8213, 48.828233], [12.80714, 48.828559], [12.783214, 48.834296], [12.770193, 48.83572], [12.764171, 48.840522], [12.758474, 48.851833], [12.75408, 48.864325], [12.752371, 48.873236], [12.74822, 48.87991], [12.677908, 48.904731], [12.654307, 48.909125], [12.625743, 48.910834], [12.616954, 48.909044], [12.592947, 48.899115], [12.584727, 48.893419], [12.575369, 48.890163], [12.553966, 48.901638], [12.540782, 48.903998], [12.540782, 48.910834], [12.553722, 48.91767], [12.539724, 48.920844], [12.52532, 48.918891], [12.513438, 48.919745], [12.5088, 48.927598]]]}}, {"type": "Feature", "properties": {"dissolve": "534River", "scalerank": 7.0, "featurecla": "River", "name": "Mosel", "name_alt": null, "rivernum": 534, "note": "Changed in 2.0", "min_zoom": 6.0, "name_en": "Mosel", "min_label": 7.0}, "bbox": [5.893077, 47.957872, 7.606375, 50.370673], "geometry": {"type": "MultiLineString", "coordinates": [[[6.922048, 48.015408], [6.878917, 48.011664], [6.8567, 48.004503], [6.84075, 47.992987], [6.8296, 47.971706], [6.816905, 47.963162], [6.796886, 47.958564], [6.773936, 47.957872], [6.752452, 47.962592], [6.73585, 47.971055], [6.723399, 47.985378], [6.711925, 48.003974], [6.694509, 48.018256], [6.667003, 48.021999], [6.635183, 48.023057], [6.606944, 48.031033], [6.594168, 48.045274], [6.599132, 48.061794], [6.607432, 48.079617], [6.605724, 48.088975], [6.595144, 48.09337], [6.560476, 48.114122], [6.550466, 48.122504], [6.5442, 48.122504], [6.536632, 48.120225], [6.525157, 48.121365], [6.514822, 48.125678], [6.510183, 48.133083], [6.506847, 48.146552], [6.498546, 48.147488], [6.487478, 48.143866], [6.476085, 48.143622], [6.455984, 48.15644], [6.446707, 48.174506], [6.445079, 48.195746], [6.448009, 48.218085], [6.427501, 48.252875], [6.413992, 48.273383], [6.397634, 48.287136], [6.393484, 48.293809], [6.392996, 48.305772], [6.256847, 48.403673], [6.256847, 48.409939], [6.264659, 48.415229], [6.275645, 48.429633], [6.28419, 48.437812], [6.301524, 48.44599], [6.308604, 48.451483], [6.311534, 48.461737], [6.306895, 48.485297], [6.295095, 48.504421], [6.263113, 48.534003], [6.247081, 48.54503], [6.228933, 48.554511], [6.223318, 48.55919], [6.221934, 48.563666], [6.219737, 48.566921], [6.211843, 48.568183], [6.19752, 48.567694], [6.190603, 48.568549], [6.184825, 48.571601], [6.170828, 48.583848], [6.149587, 48.598822], [6.125987, 48.607733], [6.105398, 48.601671], [6.087332, 48.610297], [6.066824, 48.61697], [6.048513, 48.626329], [6.03712, 48.643256], [6.017589, 48.65058], [5.913748, 48.646674], [5.910411, 48.650214], [5.903331, 48.650214], [5.896251, 48.652045], [5.893077, 48.660956], [5.894216, 48.671698], [5.897472, 48.676947], [5.913748, 48.684882], [5.92156, 48.685655], [5.943289, 48.684434], [5.947765, 48.688015], [5.950613, 48.693183], [5.968923, 48.704698], [5.989919, 48.736274], [6.002859, 48.748358], [6.02003, 48.753119], [6.057628, 48.753119], [6.069591, 48.750067], [6.078543, 48.750556], [6.088634, 48.756537], [6.105642, 48.764228], [6.123953, 48.766913], [6.135671, 48.772162], [6.133311, 48.787909], [6.122813, 48.79682], [6.111501, 48.80036], [6.107432, 48.805976], [6.11907, 48.821397], [6.110037, 48.825466], [6.103282, 48.82746], [6.097667, 48.826483], [6.092459, 48.821397], [6.08489, 48.834174], [6.0796, 48.84866], [6.080984, 48.861599], [6.092459, 48.869818], [6.092459, 48.876654], [6.072032, 48.881171], [6.053966, 48.896796], [6.044851, 48.917548], [6.050792, 48.93126], [6.057628, 48.937445], [6.049571, 48.949897], [6.030447, 48.992743], [6.042166, 49.0008], [6.04713, 49.012274], [6.050548, 49.026068], [6.057628, 49.041124], [6.084972, 49.082099], [6.102224, 49.096055], [6.152029, 49.12462], [6.170909, 49.12995], [6.190196, 49.13878], [6.203787, 49.158271], [6.205577, 49.177191], [6.18865, 49.184516], [6.193614, 49.199286], [6.19573, 49.21544], [6.192393, 49.229763], [6.181163, 49.239122], [6.18865, 49.246609], [6.181163, 49.253445], [6.18629, 49.258409], [6.189626, 49.263454], [6.194835, 49.273871], [6.170909, 49.287299], [6.167898, 49.309516], [6.167979, 49.334418], [6.15325, 49.355821], [6.181326, 49.364569], [6.195567, 49.371161], [6.201671, 49.380072], [6.209483, 49.385932], [6.253184, 49.404242], [6.263194, 49.405585], [6.27003, 49.409247], [6.280772, 49.421007], [6.289806, 49.427029], [6.296641, 49.425849], [6.303477, 49.423122], [6.311534, 49.42475], [6.318614, 49.432644], [6.321951, 49.441596], [6.325938, 49.449001], [6.335704, 49.452012], [6.345985, 49.452122], [6.345307, 49.455349], [6.34538, 49.462718], [6.342279, 49.493001], [6.350754, 49.53491], [6.350754, 49.566588], [6.356438, 49.577595], [6.371528, 49.592995], [6.397573, 49.613872], [6.407701, 49.627411], [6.415246, 49.634646], [6.417933, 49.639142], [6.417003, 49.645756], [6.410905, 49.649632], [6.404498, 49.652474], [6.402741, 49.655782], [6.418243, 49.669889], [6.491727, 49.700792], [6.510183, 49.712714], [6.536388, 49.712958], [6.563162, 49.70893], [6.589041, 49.708319], [6.612559, 49.71894], [6.620616, 49.731635], [6.630056, 49.761542], [6.637136, 49.767361], [6.687185, 49.779975], [6.695079, 49.784369], [6.698009, 49.802354], [6.702322, 49.814968], [6.708751, 49.822577], [6.722097, 49.824897], [6.734304, 49.821967], [6.746755, 49.81745], [6.771251, 49.812079], [6.794119, 49.798407], [6.80421, 49.794623], [6.819509, 49.795233], [6.829845, 49.798041], [6.839529, 49.79914], [6.852794, 49.794623], [6.844493, 49.814724], [6.839285, 49.822699], [6.832286, 49.828803], [6.846609, 49.841824], [6.858897, 49.841417], [6.898936, 49.819892], [6.90032, 49.823188], [6.900564, 49.836249], [6.895193, 49.856879], [6.894298, 49.870632], [6.900564, 49.883409], [6.911632, 49.889716], [6.921804, 49.886583], [6.929942, 49.87698], [6.935313, 49.863593], [6.951915, 49.889838], [6.968923, 49.907497], [6.993093, 49.916775], [7.060069, 49.921495], [7.049571, 49.933905], [6.996104, 49.96662], [7.010427, 49.977973], [7.02532, 49.979193], [7.064871, 49.971747], [7.068533, 49.969062], [7.072927, 49.969428], [7.089366, 49.982489], [7.095388, 49.985053], [7.100515, 49.984198], [7.105968, 49.9796], [7.105968, 49.973456], [7.100759, 49.96129], [7.10963, 49.953192], [7.123709, 49.953559], [7.13323, 49.96662], [7.128835, 49.975409], [7.118419, 49.984727], [7.112071, 49.995225], [7.11964, 50.007514], [7.114268, 50.023464], [7.113536, 50.041327], [7.118419, 50.051581], [7.130138, 50.044786], [7.153819, 50.022528], [7.168386, 50.015204], [7.174978, 50.024278], [7.168712, 50.040595], [7.15447, 50.047878], [7.138601, 50.052802], [7.127126, 50.062201], [7.126231, 50.074897], [7.129893, 50.087348], [7.128591, 50.09748], [7.112804, 50.103135], [7.134532, 50.103135], [7.156016, 50.098334], [7.174815, 50.090766], [7.187918, 50.082709], [7.194998, 50.086493], [7.202159, 50.089464], [7.197276, 50.094428], [7.195242, 50.097846], [7.193044, 50.100531], [7.187918, 50.103135], [7.198985, 50.108222], [7.210704, 50.110216], [7.236339, 50.109931], [7.236339, 50.117377], [7.225759, 50.125596], [7.226817, 50.135362], [7.230968, 50.144599], [7.229503, 50.150946], [7.219493, 50.151068], [7.19044, 50.140163], [7.178233, 50.137274], [7.171397, 50.14057], [7.167491, 50.147813], [7.167166, 50.155097], [7.171153, 50.158393], [7.246511, 50.172065], [7.276052, 50.171942], [7.289073, 50.17475], [7.301524, 50.181952], [7.31422, 50.186469], [7.345714, 50.183621], [7.359793, 50.185085], [7.368175, 50.192491], [7.375906, 50.20421], [7.38502, 50.215115], [7.397716, 50.219794], [7.421641, 50.224433], [7.449229, 50.232856], [7.449229, 50.240302], [7.441824, 50.240302], [7.441824, 50.246527], [7.446544, 50.250922], [7.446951, 50.251654], [7.444753, 50.253282], [7.441824, 50.26081], [7.45281, 50.267849], [7.456554, 50.28087], [7.458018, 50.296007], [7.46282, 50.30919], [7.473643, 50.317003], [7.487234, 50.318427], [7.521251, 50.315456], [7.53004, 50.319648], [7.544851, 50.329047], [7.556163, 50.338446], [7.554698, 50.342719], [7.551768, 50.347032], [7.557058, 50.356716], [7.568614, 50.370673], [7.578624, 50.370063], [7.606375, 50.363837]]]}}, {"type": "Feature", "properties": {"dissolve": "721River", "scalerank": 8.0, "featurecla": "River", "name": "Main", "name_alt": null, "rivernum": 721, "note": null, "min_zoom": 7.0, "name_en": "Main", "min_label": 8.0}, "bbox": [8.291515, 49.666938, 11.632009, 50.201239], "geometry": {"type": "MultiLineString", "coordinates": [[[11.539561, 49.856716], [11.594737, 49.828803], [11.599864, 49.832343], [11.611583, 49.838243], [11.615896, 49.842393], [11.618093, 49.848944], [11.617686, 49.855333], [11.615896, 49.863593], [11.627208, 49.891669], [11.627615, 49.903673], [11.615896, 49.911322], [11.632009, 49.91946], [11.631765, 49.927843], [11.626882, 49.936387], [11.628917, 49.944892], [11.628917, 49.952338], [11.610362, 49.953152], [11.583263, 49.949164], [11.567556, 49.952338], [11.553477, 49.959052], [11.541189, 49.968126], [11.531668, 49.9796], [11.52589, 49.993272], [11.515066, 49.989936], [11.506602, 49.995795], [11.49171, 50.014431], [11.463064, 50.028876], [11.449229, 50.040351], [11.44337, 50.058417], [11.431895, 50.074978], [11.405528, 50.087714], [11.354666, 50.103135], [11.274425, 50.127509], [11.238536, 50.132432], [11.229259, 50.137315], [11.212332, 50.149726], [11.162364, 50.176337], [11.143484, 50.189643], [11.125418, 50.199246], [11.106619, 50.201239], [11.084972, 50.19184], [11.032644, 50.142157], [11.011974, 50.130439], [10.978526, 50.121527], [10.963145, 50.113349], [10.956716, 50.099718], [10.953543, 50.08515], [10.936778, 50.046576], [10.90919, 50.002956], [10.894216, 49.98668], [10.878917, 49.9796], [10.85906, 49.975531], [10.861095, 49.964626], [10.869395, 49.949164], [10.867931, 49.93122], [10.854503, 49.921495], [10.835867, 49.920274], [10.772878, 49.926947], [10.759776, 49.932563], [10.73821, 49.952338], [10.724864, 49.960232], [10.618093, 49.993272], [10.581716, 49.996446], [10.549246, 50.005235], [10.491222, 50.034247], [10.469168, 50.02086], [10.43922, 50.01435], [10.374522, 50.014431], [10.347179, 50.018988], [10.326834, 50.027411], [10.293875, 50.049384], [10.279552, 50.054755], [10.252126, 50.053656], [10.228038, 50.041042], [10.179942, 49.998725], [10.175222, 49.992499], [10.17449, 49.985297], [10.175792, 49.973456], [10.182628, 49.946234], [10.182791, 49.93419], [10.175792, 49.924994], [10.175792, 49.918158], [10.189952, 49.906073], [10.18336, 49.896593], [10.169688, 49.888495], [10.162283, 49.880316], [10.169688, 49.870063], [10.205496, 49.868272], [10.21754, 49.856716], [10.184581, 49.85932], [10.170665, 49.856269], [10.172781, 49.845893], [10.205251, 49.822943], [10.211355, 49.815131], [10.212657, 49.803412], [10.208263, 49.797309], [10.197276, 49.794989], [10.179617, 49.794623], [10.163503, 49.792589], [10.156993, 49.7862], [10.149181, 49.759874], [10.161388, 49.743435], [10.151622, 49.723578], [10.121267, 49.691677], [10.149181, 49.678005], [10.117117, 49.666938], [10.082205, 49.666938], [10.05071, 49.675076], [10.028819, 49.688544], [10.024099, 49.695502], [10.02003, 49.70893], [10.014822, 49.715847], [10.008067, 49.719346], [10.000418, 49.721259], [9.994151, 49.723904], [9.985118, 49.745673], [9.970876, 49.756863], [9.956554, 49.764675], [9.949962, 49.770779], [9.944509, 49.778632], [9.908946, 49.80154], [9.901134, 49.804145], [9.88738, 49.805976], [9.881765, 49.808295], [9.875418, 49.8133], [9.873057, 49.816962], [9.871511, 49.821357], [9.867442, 49.828803], [9.847585, 49.856716], [9.84254, 49.877875], [9.840099, 49.883409], [9.81422, 49.906806], [9.806407, 49.919298], [9.812185, 49.93122], [9.803722, 49.937038], [9.771902, 49.948554], [9.75823, 49.986436], [9.74171, 49.998074], [9.72283, 50.004706], [9.71282, 50.014187], [9.723562, 50.034125], [9.705984, 50.038153], [9.69988, 50.038275], [9.687266, 50.03559], [9.682791, 50.035427], [9.664561, 50.039171], [9.658214, 50.039415], [9.65211, 50.038601], [9.64031, 50.034939], [9.634695, 50.032538], [9.616466, 50.020697], [9.609548, 50.01789], [9.591319, 50.013292], [9.585623, 50.010606], [9.579845, 50.00613], [9.576671, 50.0008], [9.5713, 49.988389], [9.562918, 49.973944], [9.560557, 49.968533], [9.559011, 49.960395], [9.5595, 49.953925], [9.562511, 49.948188], [9.57252, 49.937445], [9.601085, 49.882025], [9.602957, 49.872016], [9.600352, 49.862738], [9.591075, 49.843329], [9.583669, 49.831732], [9.580821, 49.825385], [9.580251, 49.816718], [9.58489, 49.812079], [9.601329, 49.807563], [9.610606, 49.802436], [9.609548, 49.797309], [9.602061, 49.792548], [9.569021, 49.780137], [9.556814, 49.777899], [9.544688, 49.778632], [9.490896, 49.795111], [9.472341, 49.795437], [9.436697, 49.791938], [9.400401, 49.783393], [9.351736, 49.78559], [9.33961, 49.783026], [9.328136, 49.778184], [9.317638, 49.771186], [9.29363, 49.746853], [9.27589, 49.73664], [9.269054, 49.731024], [9.264415, 49.721259], [9.26295, 49.716742], [9.260997, 49.71251], [9.258067, 49.709052], [9.253835, 49.706407], [9.250987, 49.70539], [9.247813, 49.704861], [9.245372, 49.705675], [9.244314, 49.709011], [9.238292, 49.718695], [9.224376, 49.724392], [9.208507, 49.728217], [9.196462, 49.732611], [9.185069, 49.742621], [9.181407, 49.752387], [9.182872, 49.777615], [9.176931, 49.789903], [9.163748, 49.798774], [9.148936, 49.805528], [9.138682, 49.811713], [9.137706, 49.822089], [9.155447, 49.863593], [9.156912, 49.885565], [9.149343, 49.909206], [9.132823, 49.930365], [9.107107, 49.944892], [9.107107, 49.952338], [9.117361, 49.953803], [9.125662, 49.957872], [9.133311, 49.964464], [9.141856, 49.973456], [9.127371, 49.978949], [9.110606, 49.980536], [9.076427, 49.9796], [9.06837, 49.984483], [9.031993, 50.021186], [9.026622, 50.043036], [9.025808, 50.044786], [9.021251, 50.048204], [9.011485, 50.049384], [9.00172, 50.048204], [8.997244, 50.044786], [8.992198, 50.0456], [8.983328, 50.049831], [8.97991, 50.059149], [8.990977, 50.075222], [8.975027, 50.082058], [8.947276, 50.089545], [8.93572, 50.0963], [8.914561, 50.118109], [8.904552, 50.125271], [8.88795, 50.130439], [8.80128, 50.138699], [8.78297, 50.138129], [8.772472, 50.132148], [8.778087, 50.117377], [8.760916, 50.112128], [8.699636, 50.107001], [8.642589, 50.096137], [8.548757, 50.0963], [8.533621, 50.092149], [8.523367, 50.082099], [8.507823, 50.058417], [8.466807, 50.027411], [8.444998, 50.019965], [8.421153, 50.005968], [8.395193, 49.997748], [8.367198, 50.007514], [8.348806, 50.001288], [8.305349, 50.000515], [8.291515, 49.993272]]]}}], "source_note": "Natural Earth 10m rivers_lake_centerlines, named German rivers only"}