{"type": "FeatureCollection", "features": [{"type": "Feature", "properties": {"fips": "06021", "name": "Glenn"}, "geometry": {"type": "Polygon", "coordinates": [[[-122.937654, 39.798156], [-122.046471, 39.797648], [-121.950951, 39.715004], [-121.994021, 39.533926], [-121.856532, 39.536904], [-121.890013, 39.383864], [-122.136161, 39.414499], [-122.136006, 39.385494], [-122.739062, 39.383266], [-122.735639, 39.580668], [-122.885352, 39.580108], [-122.892676, 39.708898], [-122.937654, 39.798156]]]}}, {"type": "Feature", "properties": {"fips": "06033", "name": "Lake"}, "geometry": {"type": "Polygon", "coordinates": [[[-122.627396, 38.667506], [-122.821592, 38.85014], [-122.948865, 38.90022], [-122.98664, 38.997283], [-123.028035, 38.996593], [-123.093013, 39.071994], [-123.077812, 39.173791], [-122.994839, 39.235924], [-123.075114, 39.407683], [-123.063181, 39.503539], [-122.89031, 39.529014], [-122.885352, 39.580108], [-122.735639, 39.580668], [-122.739062, 39.383266], [-122.78509, 39.382975], [-122.775043, 39.311778], [-122.680927, 39.238726], [-122.476083, 39.172609], [-122.492215, 39.054092], [-122.340172, 38.924246], [-122.395056, 38.864245], [-122.46389, 38.705203], [-122.627396, 38.667506]]]}}, {"type": "Feature", "properties": {"fips": "06045", "name": "Mendocino"}, "geometry": {"type": "Polygon", "coordinates": [[[-122.821592, 38.85014], [-123.080997, 38.852438], [-123.136253, 38.809136], [-123.26871, 38.808369], [-123.533535, 38.768408], [-123.541837, 38.776764], [-123.571987, 38.798189], [-123.579856, 38.802835], [-123.58638, 38.802857], [-123.600221, 38.814115], [-123.601569, 38.81899], [-123.605317, 38.822765], [-123.638637, 38.843865], [-123.642676, 38.844005], [-123.647387, 38.845472], [-123.652212, 38.854582], [-123.654696, 38.865638], [-123.659846, 38.872529], [-123.688099, 38.893594], [-123.71054, 38.91323], [-123.725367, 38.917438], [-123.72763, 38.9295], [-123.726315, 38.936367], [-123.738886, 38.95412], [-123.732892, 38.954994], [-123.729053, 38.956667], [-123.721347, 38.963879], [-123.711149, 38.977316], [-123.6969, 39.004401], [-123.69074, 39.021293], [-123.690095, 39.031157], [-123.693969, 39.057363], [-123.713392, 39.108422], [-123.721505, 39.125327], [-123.735936, 39.139644], [-123.737913, 39.143442], [-123.742221, 39.164885], [-123.76101, 39.191595], [-123.765891, 39.193657], [-123.774998, 39.212083], [-123.777368, 39.237214], [-123.787893, 39.264327], [-123.798991, 39.271355], [-123.803848, 39.278771], [-123.801757, 39.28353], [-123.803081, 39.291747], [-123.811387, 39.312825], [-123.808772, 39.324368], [-123.817369, 39.3388], [-123.822085, 39.343857], [-123.825331, 39.360814], [-123.826306, 39.36871], [-123.822325, 39.379987], [-123.821887, 39.406809], [-123.81469, 39.446538], [-123.795639, 39.492215], [-123.78417, 39.509419], [-123.778521, 39.521478], [-123.766475, 39.552803], [-123.76721, 39.559852], [-123.787417, 39.604552], [-123.78354, 39.609517], [-123.782322, 39.621486], [-123.78636, 39.659932], [-123.792659, 39.684122], [-123.808208, 39.710715], [-123.824744, 39.718128], [-123.829545, 39.723071], [-123.831599, 39.730629], [-123.835092, 39.738768], [-123.838089, 39.752409], [-123.83715, 39.776232], [-123.839797, 39.795637], [-123.851714, 39.832041], [-123.853764, 39.8341], [-123.881458, 39.845422], [-123.907664, 39.863028], [-123.915142, 39.875313], [-123.915853, 39.881114], [-123.930047, 39.909697], [-123.954952, 39.922373], [-123.962655, 39.937635], [-123.980031, 39.962458], [-123.99586, 39.973045], [-124.023938, 40.001284], [-123.544458, 40.001923], [-123.544563, 39.977015], [-122.934013, 39.978131], [-122.937654, 39.798156], [-122.892676, 39.708898], [-122.885352, 39.580108], [-122.89031, 39.529014], [-123.063181, 39.503539], [-123.075114, 39.407683], [-122.994839, 39.235924], [-123.077812, 39.173791], [-123.093013, 39.071994], [-123.028035, 38.996593], [-122.98664, 38.997283], [-122.948865, 38.90022], [-122.821592, 38.85014]]]}}, {"type": "Feature", "properties": {"fips": "06103", "name": "Tehama"}, "geometry": {"type": "Polygon", "coordinates": [[[-122.934013, 39.978131], [-122.989623, 40.145496], [-122.989015, 40.250145], [-123.065426, 40.286971], [-122.918472, 40.306758], [-122.872769, 40.348848], [-122.651341, 40.328288], [-122.523997, 40.3945], [-122.445021, 40.373398], [-122.310412, 40.371064], [-122.010316, 40.426558], [-121.940989, 40.415331], [-121.806539, 40.44495], [-121.64633, 40.434726], [-121.497635, 40.445591], [-121.470395, 40.350213], [-121.345571, 40.312667], [-121.368395, 40.21223], [-121.436886, 40.151905], [-121.586407, 40.100522], [-121.646032, 39.982527], [-121.703241, 39.98423], [-121.804041, 39.884344], [-122.044865, 39.883771], [-122.046471, 39.797648], [-122.937654, 39.798156], [-122.934013, 39.978131]]]}}, {"type": "Feature", "properties": {"fips": "06011", "name": "Colusa"}, "geometry": {"type": "Polygon", "coordinates": [[[-121.908269, 39.303878], [-121.945509, 39.180959], [-121.847964, 39.070817], [-121.835488, 38.924481], [-122.337967, 38.923945], [-122.340172, 38.924246], [-122.492215, 39.054092], [-122.476083, 39.172609], [-122.680927, 39.238726], [-122.775043, 39.311778], [-122.78509, 39.382975], [-122.739062, 39.383266], [-122.136006, 39.385494], [-122.136161, 39.414499], [-121.890013, 39.383864], [-121.908269, 39.303878]]]}}, {"type": "Feature", "properties": {"fips": "06023", "name": "Humboldt"}, "geometry": {"type": "Polygon", "coordinates": [[[-123.544458, 40.001923], [-124.023938, 40.001284], [-124.035904, 40.013319], [-124.056408, 40.024305], [-124.065069, 40.024785], [-124.068908, 40.021307], [-124.072509, 40.022657], [-124.079983, 40.029773], [-124.080709, 40.06611], [-124.087086, 40.078442], [-124.110549, 40.103765], [-124.139952, 40.11635], [-124.170767, 40.124207], [-124.187874, 40.130542], [-124.214895, 40.160902], [-124.231095, 40.171581], [-124.258405, 40.184277], [-124.296497, 40.208816], [-124.320912, 40.226617], [-124.327691, 40.23737], [-124.34307, 40.243979], [-124.352715, 40.250453], [-124.363414, 40.260974], [-124.363634, 40.276212], [-124.347853, 40.314634], [-124.353124, 40.331425], [-124.356595, 40.335016], [-124.362796, 40.350046], [-124.365357, 40.374855], [-124.373599, 40.392923], [-124.379082, 40.398828], [-124.391496, 40.407047], [-124.402623, 40.422105], [-124.409591, 40.438076], [-124.408601, 40.443201], [-124.396642, 40.462119], [-124.38494, 40.48982], [-124.383224, 40.499852], [-124.387023, 40.504954], [-124.382816, 40.519], [-124.379096, 40.522865], [-124.363545, 40.548698], [-124.329404, 40.61643], [-124.315141, 40.639526], [-124.312558, 40.641333], [-124.289119, 40.67963], [-124.248406, 40.735166], [-124.228244, 40.76939], [-124.201921, 40.805111], [-124.176715, 40.843618], [-124.158322, 40.876069], [-124.137066, 40.925732], [-124.118147, 40.989263], [-124.112165, 41.028173], [-124.125448, 41.048504], [-124.132946, 41.052482], [-124.138217, 41.054342], [-124.142867, 41.054032], [-124.147216, 41.052884], [-124.148939, 41.051467], [-124.151266, 41.051101], [-124.153622, 41.05355], [-124.154028, 41.059923], [-124.154513, 41.087159], [-124.160556, 41.099011], [-124.159065, 41.121957], [-124.165414, 41.129822], [-124.163988, 41.138675], [-124.158539, 41.143021], [-124.149674, 41.140845], [-124.1438, 41.144686], [-124.122677, 41.189726], [-124.106986, 41.229678], [-124.106389, 41.240682], [-124.092284, 41.287695], [-124.079015, 41.347135], [-124.072294, 41.374844], [-124.063076, 41.439579], [-124.065521, 41.464739], [-123.770551, 41.464193], [-123.770239, 41.380776], [-123.661363, 41.38209], [-123.474085, 41.366193], [-123.408291, 41.179944], [-123.481457, 40.914957], [-123.560163, 40.950257], [-123.623826, 40.929421], [-123.55985, 40.829584], [-123.544059, 40.739386], [-123.544458, 40.001923]]]}}, {"type": "Feature", "properties": {"fips": "06097", "name": "Sonoma"}, "geometry": {"type": "Polygon", "coordinates": [[[-123.26871, 38.808369], [-123.136253, 38.809136], [-123.080997, 38.852438], [-122.821592, 38.85014], [-122.627396, 38.667506], [-122.646268, 38.59912], [-122.543893, 38.519966], [-122.378987, 38.250714], [-122.406786, 38.155632], [-122.406978, 38.155663], [-122.403514, 38.150624], [-122.40358, 38.15063], [-122.409798, 38.136231], [-122.439577, 38.116923], [-122.450377, 38.116269], [-122.454958, 38.118887], [-122.484411, 38.11496], [-122.489974, 38.112014], [-122.490727, 38.109755], [-122.565093, 38.182217], [-122.648986, 38.181077], [-122.7399, 38.207018], [-122.901726, 38.316943], [-123.002911, 38.295708], [-123.004122, 38.297012], [-123.024333, 38.310573], [-123.038742, 38.313576], [-123.051061, 38.310693], [-123.053476, 38.305722], [-123.052021, 38.302246], [-123.053504, 38.299385], [-123.058239, 38.298355], [-123.063671, 38.302178], [-123.074684, 38.322574], [-123.068437, 38.33521], [-123.068265, 38.359865], [-123.085572, 38.390525], [-123.103706, 38.415541], [-123.122379, 38.437314], [-123.128825, 38.450418], [-123.145325, 38.459422], [-123.166428, 38.474947], [-123.202277, 38.494314], [-123.249797, 38.511045], [-123.287156, 38.540223], [-123.297151, 38.543452], [-123.331899, 38.565542], [-123.343338, 38.590008], [-123.349612, 38.596805], [-123.371876, 38.607235], [-123.379303, 38.621953], [-123.398166, 38.647044], [-123.40301, 38.649449], [-123.405663, 38.656729], [-123.43272, 38.687131], [-123.441774, 38.699744], [-123.461291, 38.717001], [-123.490021, 38.732213], [-123.514784, 38.741966], [-123.525152, 38.753801], [-123.533535, 38.768408], [-123.26871, 38.808369]]]}}, {"type": "Feature", "properties": {"fips": "06105", "name": "Trinity"}, "geometry": {"type": "Polygon", "coordinates": [[[-123.065426, 40.286971], [-122.989015, 40.250145], [-122.989623, 40.145496], [-122.934013, 39.978131], [-123.544563, 39.977015], [-123.544458, 40.001923], [-123.544059, 40.739386], [-123.55985, 40.829584], [-123.623826, 40.929421], [-123.560163, 40.950257], [-123.481457, 40.914957], [-123.408291, 41.179944], [-123.273402, 41.122891], [-123.23948, 41.075763], [-123.141338, 41.079178], [-123.036808, 41.004058], [-122.917529, 40.99399], [-122.897411, 41.028475], [-122.966949, 41.08205], [-122.961347, 41.181525], [-122.811342, 41.202451], [-122.653686, 41.289237], [-122.585241, 41.359008], [-122.50389, 41.342985], [-122.522636, 41.213525], [-122.498376, 41.182675], [-122.445453, 41.15793], [-122.752266, 40.689642], [-122.695298, 40.572514], [-122.845954, 40.505181], [-122.903738, 40.445071], [-122.998682, 40.418142], [-123.068789, 40.332233], [-123.065426, 40.286971]]]}}]}