{"type": "FeatureCollection", "features": [{"type": "Feature", "properties": {"dissolve": "534River", "scalerank": 7.0, "featurecla": "River", "name": "Mosel", "name_alt": null, "rivernum": 534, "note": "Changed in 2.0", "min_zoom": 6.0, "name_en": "Mosel", "min_label": 7.0}, "bbox": [5.893077, 47.957872, 7.606375, 50.370673], "geometry": {"type": "MultiLineString", "coordinates": [[[6.922048, 48.015408], [6.878917, 48.011664], [6.8567, 48.004503], [6.84075, 47.992987], [6.8296, 47.971706], [6.816905, 47.963162], [6.796886, 47.958564], [6.773936, 47.957872], [6.752452, 47.962592], [6.73585, 47.971055], [6.723399, 47.985378], [6.711925, 48.003974], [6.694509, 48.018256], [6.667003, 48.021999], [6.635183, 48.023057], [6.606944, 48.031033], [6.594168, 48.045274], [6.599132, 48.061794], [6.607432, 48.079617], [6.605724, 48.088975], [6.595144, 48.09337], [6.560476, 48.114122], [6.550466, 48.122504], [6.5442, 48.122504], [6.536632, 48.120225], [6.525157, 48.121365], [6.514822, 48.125678], [6.510183, 48.133083], [6.506847, 48.146552], [6.498546, 48.147488], [6.487478, 48.143866], [6.476085, 48.143622], [6.455984, 48.15644], [6.446707, 48.174506], [6.445079, 48.195746], [6.448009, 48.218085], [6.427501, 48.252875], [6.413992, 48.273383], [6.397634, 48.287136], [6.393484, 48.293809], [6.392996, 48.305772], [6.256847, 48.403673], [6.256847, 48.409939], [6.264659, 48.415229], [6.275645, 48.429633], [6.28419, 48.437812], [6.301524, 48.44599], [6.308604, 48.451483], [6.311534, 48.461737], [6.306895, 48.485297], [6.295095, 48.504421], [6.263113, 48.534003], [6.247081, 48.54503], [6.228933, 48.554511], [6.223318, 48.55919], [6.221934, 48.563666], [6.219737, 48.566921], [6.211843, 48.568183], [6.19752, 48.567694], [6.190603, 48.568549], [6.184825, 48.571601], [6.170828, 48.583848], [6.149587, 48.598822], [6.125987, 48.607733], [6.105398, 48.601671], [6.087332, 48.610297], [6.066824, 48.61697], [6.048513, 48.626329], [6.03712, 48.643256], [6.017589, 48.65058], [5.913748, 48.646674], [5.910411, 48.650214], [5.903331, 48.650214], [5.896251, 48.652045], [5.893077, 48.660956], [5.894216, 48.671698], [5.897472, 48.676947], [5.913748, 48.684882], [5.92156, 48.685655], [5.943289, 48.684434], [5.947765, 48.688015], [5.950613, 48.693183], [5.968923, 48.704698], [5.989919, 48.736274], [6.002859, 48.748358], [6.02003, 48.753119], [6.057628, 48.753119], [6.069591, 48.750067], [6.078543, 48.750556], [6.088634, 48.756537], [6.105642, 48.764228], [6.123953, 48.766913], [6.135671, 48.772162], [6.133311, 48.787909], [6.122813, 48.79682], [6.111501, 48.80036], [6.107432, 48.805976], [6.11907, 48.821397], [6.110037, 48.825466], [6.103282, 48.82746], [6.097667, 48.826483], [6.092459, 48.821397], [6.08489, 48.834174], [6.0796, 48.84866], [6.080984, 48.861599], [6.092459, 48.869818], [6.092459, 48.876654], [6.072032, 48.881171], [6.053966, 48.896796], [6.044851, 48.917548], [6.050792, 48.93126], [6.057628, 48.937445], [6.049571, 48.949897], [6.030447, 48.992743], [6.042166, 49.0008], [6.04713, 49.012274], [6.050548, 49.026068], [6.057628, 49.041124], [6.084972, 49.082099], [6.102224, 49.096055], [6.152029, 49.12462], [6.170909, 49.12995], [6.190196, 49.13878], [6.203787, 49.158271], [6.205577, 49.177191], [6.18865, 49.184516], [6.193614, 49.199286], [6.19573, 49.21544], [6.192393, 49.229763], [6.181163, 49.239122], [6.18865, 49.246609], [6.181163, 49.253445], [6.18629, 49.258409], [6.189626, 49.263454], [6.194835, 49.273871], [6.170909, 49.287299], [6.167898, 49.309516], [6.167979, 49.334418], [6.15325, 49.355821], [6.181326, 49.364569], [6.195567, 49.371161], [6.201671, 49.380072], [6.209483, 49.385932], [6.253184, 49.404242], [6.263194, 49.405585], [6.27003, 49.409247], [6.280772, 49.421007], [6.289806, 49.427029], [6.296641, 49.425849], [6.303477, 49.423122], [6.311534, 49.42475], [6.318614, 49.432644], [6.321951, 49.441596], [6.325938, 49.449001], [6.335704, 49.452012], [6.345985, 49.452122], [6.345307, 49.455349], [6.34538, 49.462718], [6.342279, 49.493001], [6.350754, 49.53491], [6.350754, 49.566588], [6.356438, 49.577595], [6.371528, 49.592995], [6.397573, 49.613872], [6.407701, 49.627411], [6.415246, 49.634646], [6.417933, 49.639142], [6.417003, 49.645756], [6.410905, 49.649632], [6.404498, 49.652474], [6.402741, 49.655782], [6.418243, 49.669889], [6.491727, 49.700792], [6.510183, 49.712714], [6.536388, 49.712958], [6.563162, 49.70893], [6.589041, 49.708319], [6.612559, 49.71894], [6.620616, 49.731635], [6.630056, 49.761542], [6.637136, 49.767361], [6.687185, 49.779975], [6.695079, 49.784369], [6.698009, 49.802354], [6.702322, 49.814968], [6.708751, 49.822577], [6.722097, 49.824897], [6.734304, 49.821967], [6.746755, 49.81745], [6.771251, 49.812079], [6.794119, 49.798407], [6.80421, 49.794623], [6.819509, 49.795233], [6.829845, 49.798041], [6.839529, 49.79914], [6.852794, 49.794623], [6.844493, 49.814724], [6.839285, 49.822699], [6.832286, 49.828803], [6.846609, 49.841824], [6.858897, 49.841417], [6.898936, 49.819892], [6.90032, 49.823188], [6.900564, 49.836249], [6.895193, 49.856879], [6.894298, 49.870632], [6.900564, 49.883409], [6.911632, 49.889716], [6.921804, 49.886583], [6.929942, 49.87698], [6.935313, 49.863593], [6.951915, 49.889838], [6.968923, 49.907497], [6.993093, 49.916775], [7.060069, 49.921495], [7.049571, 49.933905], [6.996104, 49.96662], [7.010427, 49.977973], [7.02532, 49.979193], [7.064871, 49.971747], [7.068533, 49.969062], [7.072927, 49.969428], [7.089366, 49.982489], [7.095388, 49.985053], [7.100515, 49.984198], [7.105968, 49.9796], [7.105968, 49.973456], [7.100759, 49.96129], [7.10963, 49.953192], [7.123709, 49.953559], [7.13323, 49.96662], [7.128835, 49.975409], [7.118419, 49.984727], [7.112071, 49.995225], [7.11964, 50.007514], [7.114268, 50.023464], [7.113536, 50.041327], [7.118419, 50.051581], [7.130138, 50.044786], [7.153819, 50.022528], [7.168386, 50.015204], [7.174978, 50.024278], [7.168712, 50.040595], [7.15447, 50.047878], [7.138601, 50.052802], [7.127126, 50.062201], [7.126231, 50.074897], [7.129893, 50.087348], [7.128591, 50.09748], [7.112804, 50.103135], [7.134532, 50.103135], [7.156016, 50.098334], [7.174815, 50.090766], [7.187918, 50.082709], [7.194998, 50.086493], [7.202159, 50.089464], [7.197276, 50.094428], [7.195242, 50.097846], [7.193044, 50.100531], [7.187918, 50.103135], [7.198985, 50.108222], [7.210704, 50.110216], [7.236339, 50.109931], [7.236339, 50.117377], [7.225759, 50.125596], [7.226817, 50.135362], [7.230968, 50.144599], [7.229503, 50.150946], [7.219493, 50.151068], [7.19044, 50.140163], [7.178233, 50.137274], [7.171397, 50.14057], [7.167491, 50.147813], [7.167166, 50.155097], [7.171153, 50.158393], [7.246511, 50.172065], [7.276052, 50.171942], [7.289073, 50.17475], [7.301524, 50.181952], [7.31422, 50.186469], [7.345714, 50.183621], [7.359793, 50.185085], [7.368175, 50.192491], [7.375906, 50.20421], [7.38502, 50.215115], [7.397716, 50.219794], [7.421641, 50.224433], [7.449229, 50.232856], [7.449229, 50.240302], [7.441824, 50.240302], [7.441824, 50.246527], [7.446544, 50.250922], [7.446951, 50.251654], [7.444753, 50.253282], [7.441824, 50.26081], [7.45281, 50.267849], [7.456554, 50.28087], [7.458018, 50.296007], [7.46282, 50.30919], [7.473643, 50.317003], [7.487234, 50.318427], [7.521251, 50.315456], [7.53004, 50.319648], [7.544851, 50.329047], [7.556163, 50.338446], [7.554698, 50.342719], [7.551768, 50.347032], [7.557058, 50.356716], [7.568614, 50.370673], [7.578624, 50.370063], [7.606375, 50.363837]]]}}]}